{"type":"FeatureCollection","features":[{"type":"Feature","id":0,"geometry":{"type":"Polygon","coordinates":[[[3.3352504910001057,6.624185445000034],[3.334676486000041,6.624663509000065],[3.3334643480000237,6.625089025000012],[3.332573385000024,6.625265433000042],[3.331362245,6.625627375000057],[3.330339510000022,6.626119395000089],[3.329440628999989,6.626803525000028],[3.3281729849999975,6.626720312000071],[3.3274186740000244,6.626264361000004],[3.326210470000066,6.626436137000006],[3.3250618190000614,6.62686259000003],[3.3239082330000924,6.627606083999996],[3.3223652230000544,6.628914955000024],[3.322531870000076,6.6296664630000315],[3.316338059999988,6.645660307000071],[3.3147568700000773,6.647460885000015],[3.3071913850000945,6.64737698900009],[3.3071374590000735,6.644691905000059],[3.303500621000075,6.635646613000027],[3.3028540810000484,6.6350846219999795],[3.3018588590000375,6.633799935000088],[3.3018687250000545,6.633165625000096],[3.3017586420000056,6.63208517900005],[3.3017422520000705,6.631273267000019],[3.2995832030000427,6.625903104000045],[3.2988085660000754,6.62299767399999],[3.301520329000005,6.6193175870000545],[3.3034607420000617,6.617053806000065],[3.3036515340000383,6.616440127000004],[3.3045701810000194,6.614487142000062],[3.3049030480000274,6.6134771870000755],[3.305109159000028,6.61246496399999],[3.305754313000029,6.6117769480000845],[3.3061690570000613,6.6113758730000285],[3.309074418000022,6.608664143000013],[3.312173608000033,6.606340051000096],[3.3155398260000224,6.6047370540000685],[3.317467933000038,6.60584797000006],[3.318732917999987,6.606648452000034],[3.319697013999998,6.6070183669999984],[3.3212697240000066,6.60779986900009],[3.3225427880000025,6.60807990399999],[3.3251205690000374,6.608119859000098],[3.326327718000086,6.608067329000015],[3.327014325000053,6.60803077400001],[3.3274912980000826,6.607777883000047],[3.328401094000042,6.607066515000074],[3.331356984000009,6.6054454240000595],[3.3298969599999984,6.61234426600004],[3.3368699180000716,6.613312710000056],[3.3376448390000624,6.617187146999996],[3.3352504910001057,6.624185445000034]]]},"properties":{"FID":0,"Shape_Leng":0.136929295861,"Shape_Area":0.000938556683034,"ADM2_EN":"Agege","ADM2_PCODE":"NG025001","ADM2_REF":"Agege","ADM2ALT1EN":" ","ADM2ALT2EN":" ","ADM1_EN":"Lagos","ADM1_PCODE":"NG025","ADM0_EN":"Nigeria","ADM0_PCODE":"NG","date":1480377600000,"validOn":1555459200000,"validTo":null,"SD_EN":"Lagos West","SD_PCODE":"NG02501"}},{"type":"Feature","id":1,"geometry":{"type":"Polygon","coordinates":[[[3.3388273880000297,6.436401229000047],[3.3412957120000675,6.436030739000035],[3.3451039970000407,6.434920413000004],[3.349784833000089,6.435396275000031],[3.3504197810000447,6.443568231000011],[3.3523237920000204,6.447614688000062],[3.3524108620000304,6.452044855000064],[3.3569981750000677,6.453532905999996],[3.357097010000074,6.4548918210000785],[3.357242792000057,6.456897225000006],[3.3569254770000923,6.462530189000052],[3.3552369590000053,6.462664959000012],[3.354665422000056,6.462928871999999],[3.354047149000059,6.463282762000059],[3.353609327000071,6.463707575000036],[3.3535569380000885,6.464160929000066],[3.353520627000015,6.465046077000029],[3.3533509520000093,6.465747437000061],[3.353027614000079,6.466105894000055],[3.352570985000045,6.46628056200003],[3.3518734620000634,6.465883761000061],[3.3510366300001015,6.465689117000032],[3.350487387000043,6.465975982000053],[3.3497706160000673,6.466828014000029],[3.349627104000006,6.467302575000037],[3.3497336140000256,6.467758659000026],[3.3501950670001035,6.468742206000048],[3.350028180000062,6.469262191999995],[3.3498103010000646,6.470144538000081],[3.3495040970000423,6.470866681000057],[3.3500368240000666,6.471647002000051],[3.3491049840000597,6.471723633000085],[3.3486414049999835,6.47145532600009],[3.348137577000041,6.4711635230000155],[3.3475081140000063,6.470767765000044],[3.3471052590000694,6.4703981000001],[3.3457171890000614,6.470293299000044],[3.344389890000019,6.471178007000059],[3.341692472000033,6.474906935000039],[3.3398005749999937,6.473393408000042],[3.3354246640000396,6.470463695000021],[3.334560869000067,6.469857701000063],[3.3338383660000614,6.469949664000033],[3.3330667700000793,6.469937721000022],[3.3318645640000843,6.469257230000029],[3.331762892000021,6.468703996999995],[3.3311049120000247,6.468473090000074],[3.330336821000066,6.4682407540000355],[3.3291413620000077,6.467118921000029],[3.3288209430000526,6.46645207800001],[3.3279477080000985,6.465886873000052],[3.32607907300003,6.465526975000028],[3.3252007160000074,6.465292937000115],[3.324661560999984,6.464512184000085],[3.3240773810000546,6.462502228000048],[3.3210644800000777,6.460388184000102],[3.3164589200000405,6.459038160000045],[3.3164997110000405,6.454671844000085],[3.317719424000063,6.45162245600002],[3.3191428430000647,6.449182410000013],[3.320565920000038,6.4445066030000255],[3.3232090210000598,6.44125374300009],[3.3297147380000203,6.440033355000011],[3.3356108759999925,6.438813607000075],[3.3388273880000297,6.436401229000047]]]},"properties":{"FID":1,"Shape_Leng":0.136004964622,"Shape_Area":0.00104276508181,"ADM2_EN":"Ajeromi-Ifelodun","ADM2_PCODE":"NG025002","ADM2_REF":"Ajeromi-Ifelodun","ADM2ALT1EN":" ","ADM2ALT2EN":" ","ADM1_EN":"Lagos","ADM1_PCODE":"NG025","ADM0_EN":"Nigeria","ADM0_PCODE":"NG","date":1480377600000,"validOn":1555459200000,"validTo":null,"SD_EN":"Lagos West","SD_PCODE":"NG02501"}},{"type":"Feature","id":2,"geometry":{"type":"Polygon","coordinates":[[[3.3071913850000945,6.64737698900009],[3.2957093860000652,6.654764158000063],[3.293675406999994,6.657476062000093],[3.290793371000098,6.662377135000067],[3.2889606680000716,6.66271398800005],[3.285662457000025,6.6632718400000215],[3.282529861000092,6.663629070000091],[3.281355674000017,6.664077622000079],[3.2799229820000475,6.665223571000038],[3.2766418030000777,6.667808795000067],[3.2755142260000403,6.668384372000084],[3.2735309689999914,6.670259874000099],[3.271068851000023,6.674578106000077],[3.269973196000051,6.67582000500007],[3.269702167000008,6.680161496000018],[3.2685494430000217,6.681158590000095],[3.262946064000025,6.686269524000025],[3.262487325000083,6.687033859000028],[3.2621548720000204,6.687516168000055],[3.2605039980000283,6.689196147000057],[3.2594410500000093,6.690226274000025],[3.254357565000041,6.681670770000018],[3.251984340000056,6.676463996000063],[3.249513651,6.672148177000018],[3.24830267699999,6.670033019000069],[3.2465901260000463,6.667577633000036],[3.2443194390000185,6.664321889000039],[3.2418410810000386,6.659866261000062],[3.2413773630000398,6.654182996000028],[3.24047327500002,6.648199149000082],[3.240011200000068,6.645865998000037],[3.2392933450000028,6.642240946000037],[3.2388513000000207,6.640009252000038],[3.239370108000048,6.633987325000049],[3.2393371850000774,6.630731948000083],[3.241477246000044,6.628627356000031],[3.241439127999999,6.625326688000047],[3.2411167670000607,6.623126012000039],[3.240591055999995,6.618102212000036],[3.2400076230000385,6.616025448000066],[3.2374811290000727,6.614116217000102],[3.2353110510000205,6.6098437210000895],[3.233282788000067,6.605851246000064],[3.2297241760000572,6.601042213000067],[3.216072574000104,6.595005580000105],[3.2074708730000046,6.588375166000041],[3.199406865000074,6.580310895],[3.1968980100000577,6.576189628000066],[3.196181066000068,6.573322177000044],[3.1963772880000496,6.570620963000099],[3.1974356110000413,6.5663332360000695],[3.2008404730000306,6.5591649860000025],[3.20155718500009,6.555401734000025],[3.2017364320000885,6.55217655500007],[3.2039289610000443,6.54719261999999],[3.2039249140000647,6.54459476500007],[3.2048189670000538,6.542418947000076],[3.2052219059999976,6.539588995000049],[3.20513510900001,6.536102709999984],[3.2049670260000473,6.533184042000077],[3.2039604050000703,6.52947744199999],[3.204882363000059,6.524407244000056],[3.206134081000065,6.520026757000078],[3.2069153670000494,6.5172915430000735],[3.211388378000044,6.512818712000094],[3.2152511960000885,6.503466722999999],[3.218097453000044,6.493504028000089],[3.2195207950000393,6.491877450000064],[3.240461567000028,6.48699806800002],[3.2508304230000595,6.481712237000096],[3.2504771020000467,6.478355464000089],[3.2529651930000325,6.47845924500006],[3.2621142860000374,6.480492587000079],[3.2647571740000414,6.4817122200000945],[3.2680101699999886,6.482728873000013],[3.2753293150000173,6.484761766000084],[3.281835327000091,6.485575072000053],[3.284478442000025,6.486591922000077],[3.2883412870000717,6.494114335000049],[3.2909128690000378,6.4956571010000665],[3.2910607090000132,6.500387538000044],[3.291254313000045,6.502905238000082],[3.2897048430000053,6.505229878000044],[3.28796149,6.506585524000034],[3.285830718000091,6.511428482999996],[3.283893807000058,6.518788858000061],[3.2862181530000845,6.524018726000062],[3.2877679290000605,6.526149229000037],[3.288155114000033,6.531185219000072],[3.2885425170000238,6.534671920000083],[3.285830777000096,6.546874948999996],[3.286993057000074,6.554041499000011],[3.287574073000008,6.556172421000021],[3.2929976040000453,6.557915648000105],[3.2959030100000986,6.557915691000019],[3.298033723000091,6.5592712230000885],[3.29970446800004,6.560607988000115],[3.3003090610000596,6.5616879490000315],[3.300909392000082,6.562183940000036],[3.301907788000089,6.562370744000038],[3.3048131550000504,6.562370733000037],[3.3073311000000194,6.5577216280000385],[3.3113987240000453,6.553847752000056],[3.311398719000045,6.550167589000026],[3.313536843000029,6.55033163500001],[3.3174035610000407,6.5889072040000976],[3.3191466270000225,6.593555804000054],[3.319921472000007,6.596654797000049],[3.3162412630000615,6.604403149000063],[3.3155398260000224,6.6047370540000685],[3.312173608000033,6.606340051000096],[3.309074418000022,6.608664143000013],[3.3061690570000613,6.6113758730000285],[3.305754313000029,6.6117769480000845],[3.305109159000028,6.61246496399999],[3.3049030480000274,6.6134771870000755],[3.3045701810000194,6.614487142000062],[3.3036515340000383,6.616440127000004],[3.3034607420000617,6.617053806000065],[3.301520329000005,6.6193175870000545],[3.2988085660000754,6.62299767399999],[3.2995832030000427,6.625903104000045],[3.3017422520000705,6.631273267000019],[3.3017586420000056,6.63208517900005],[3.3018687250000545,6.633165625000096],[3.3018588590000375,6.633799935000088],[3.3028540810000484,6.6350846219999795],[3.303500621000075,6.635646613000027],[3.3071374590000735,6.644691905000059],[3.3071913850000945,6.64737698900009]]]},"properties":{"FID":2,"Shape_Leng":0.589766815932,"Shape_Area":0.015008636535,"ADM2_EN":"Alimosho","ADM2_PCODE":"NG025003","ADM2_REF":"Alimosho","ADM2ALT1EN":" ","ADM2ALT2EN":" ","ADM1_EN":"Lagos","ADM1_PCODE":"NG025","ADM0_EN":"Nigeria","ADM0_PCODE":"NG","date":1480377600000,"validOn":1555459200000,"validTo":null,"SD_EN":"Lagos West","SD_PCODE":"NG02501"}},{"type":"Feature","id":3,"geometry":{"type":"Polygon","coordinates":[[[3.3164589200000405,6.459038160000045],[3.3189394530000227,6.463617712000062],[3.3268685250000685,6.47195341200009],[3.328291665000047,6.477849581000065],[3.3284949990000845,6.481305702000032],[3.3268685370000695,6.484761734000081],[3.3244287650000848,6.489641092000035],[3.322395838000012,6.49513042900001],[3.3233106440000304,6.501026636000077],[3.3204643580000726,6.497773710000047],[3.3192443480000255,6.495334191000083],[3.3178212630000514,6.4910644240000295],[3.3151781320000273,6.487811493999999],[3.3068420210000538,6.485727397000044],[3.3039820120000263,6.486946492000104],[3.3003801260000776,6.486529249000043],[3.299033406000027,6.483725946000089],[3.2911875660001177,6.48150867600004],[3.2909128690000378,6.4956571010000665],[3.2883412870000717,6.494114335000049],[3.284478442000025,6.486591922000077],[3.281835327000091,6.485575072000053],[3.2753293150000173,6.484761766000084],[3.2680101699999886,6.482728873000013],[3.2647571740000414,6.4817122200000945],[3.2621142860000374,6.480492587000079],[3.2529651930000325,6.47845924500006],[3.2504771020000467,6.478355464000089],[3.2424948110000384,6.476629281000083],[3.238835117000103,6.471953503000098],[3.23863195800008,6.457111907000094],[3.231922604000057,6.4591445130000515],[3.228424306000064,6.459697285000047],[3.2274667110000577,6.459495953000086],[3.227193695000028,6.459119718000043],[3.2270519200000214,6.458280091000027],[3.227313524000084,6.4574157470000095],[3.229050637000017,6.457319061000003],[3.2295488650000292,6.4571717610000725],[3.230549165000105,6.4566293660000476],[3.2309973910000656,6.456277799000091],[3.228873020000065,6.452028834999982],[3.228041963000048,6.451364019000042],[3.229178475000025,6.447506438000076],[3.229803126000017,6.444618364000036],[3.2283965850000795,6.441988204000019],[3.2263836550000624,6.441087138000071],[3.2194306400000405,6.44126709800004],[3.2167552020000967,6.441719417000073],[3.217894342000025,6.440033512000113],[3.2207405430000646,6.4363742250000335],[3.2128114930000207,6.433731145000014],[3.2073221370000438,6.433731071000096],[3.204272486000046,6.4337311200001],[3.200612776000109,6.431697970000098],[3.200206275000048,6.428648599000034],[3.2010195300000133,6.425801713000027],[3.1991896600000436,6.419702414000032],[3.2006127680000196,6.416449458000088],[3.202442674000081,6.414416191000075],[3.2030508180000394,6.41116331900005],[3.202035869999995,6.407722508000106],[3.2021100810000958,6.403030282000003],[3.2021459010000397,6.400765412000013],[3.2049789700000586,6.400849840999982],[3.2355189410000795,6.400849675000057],[3.2664224870000735,6.400849842000071],[3.312959711000061,6.400122682000035],[3.3384096940000196,6.398304931000002],[3.3700402040000332,6.394668945000074],[3.3827073810000696,6.392435072000072],[3.395853725000051,6.391397060000074],[3.399489668000064,6.390306448000075],[3.4063744780000382,6.390175753000008],[3.4054078900000873,6.39320612800001],[3.4050039980000646,6.396037109000034],[3.4023463589999947,6.400687280000032],[3.3980271960000286,6.40669060500008],[3.402906682999993,6.4274282180000455],[3.399880366000061,6.434388748000067],[3.3959939660000193,6.43190134700005],[3.392131052000056,6.432104449000068],[3.3880648570000593,6.4331211470000795],[3.3842020190000133,6.430884945000063],[3.381558887000078,6.42885167400005],[3.3827788760000344,6.426005277000083],[3.3833887550000474,6.423768979000059],[3.3831854290000107,6.420719007000034],[3.380949058000069,6.418076174000035],[3.3800586150000234,6.420247373000091],[3.377500596000025,6.422374049000016],[3.376729390000075,6.425611679000024],[3.3781333980000694,6.42816037100005],[3.379137985000056,6.433230345000055],[3.3758806220001025,6.43390238400006],[3.374482149000033,6.430992583999998],[3.37451538500003,6.428826877000041],[3.3734610080000094,6.427005618000074],[3.3720404690000683,6.425539615000012],[3.36879425200006,6.425489689000056],[3.366263867000039,6.4258116590000505],[3.362989909000045,6.427566586000037],[3.3575461760000236,6.429648950000026],[3.35431552300006,6.428851614000045],[3.351672382000035,6.429868093000039],[3.349232694000057,6.429461344000046],[3.3459797000000213,6.427834981000039],[3.342930032000022,6.427225183000033],[3.339067244000069,6.427631776000013],[3.3358142420000325,6.4284448260000495],[3.3323578840000456,6.43007147300008],[3.3313412960000433,6.434137804000088],[3.3343911200000553,6.43596746200004],[3.3388273880000297,6.436401229000047],[3.3356108759999925,6.438813607000075],[3.3297147380000203,6.440033355000011],[3.3232090210000598,6.44125374300009],[3.320565920000038,6.4445066030000255],[3.3191428430000647,6.449182410000013],[3.317719424000063,6.45162245600002],[3.3164997110000405,6.454671844000085],[3.3164589200000405,6.459038160000045]]]},"properties":{"FID":3,"Shape_Leng":0.690195236841,"Shape_Area":0.0113422338121,"ADM2_EN":"Amuwo-Odofin","ADM2_PCODE":"NG025004","ADM2_REF":"Amuwo-Odofin","ADM2ALT1EN":" ","ADM2ALT2EN":" ","ADM1_EN":"Lagos","ADM1_PCODE":"NG025","ADM0_EN":"Nigeria","ADM0_PCODE":"NG","date":1480377600000,"validOn":1555459200000,"validTo":null,"SD_EN":"Lagos West","SD_PCODE":"NG02501"}},{"type":"Feature","id":4,"geometry":{"type":"Polygon","coordinates":[[[3.365058359000037,6.475946754000098],[3.3630344740000906,6.476493813000065],[3.3602576070000145,6.477286727000035],[3.3577981319999983,6.478556767000047],[3.351133592000042,6.478635706000006],[3.3468123430000807,6.477807090000013],[3.34616002300002,6.478063223000067],[3.34564823000004,6.47826446200002],[3.3453741180000085,6.477870224000085],[3.3452367170000086,6.477307388000057],[3.3448792830000995,6.4767900670000635],[3.343770374000008,6.475975684000005],[3.341692472000033,6.474906935000039],[3.344389890000019,6.471178007000059],[3.3457171890000614,6.470293299000044],[3.3471052590000694,6.4703981000001],[3.3475081140000063,6.470767765000044],[3.348137577000041,6.4711635230000155],[3.3486414049999835,6.47145532600009],[3.3491049840000597,6.471723633000085],[3.3500368240000666,6.471647002000051],[3.3495040970000423,6.470866681000057],[3.3498103010000646,6.470144538000081],[3.350028180000062,6.469262191999995],[3.3501950670001035,6.468742206000048],[3.3497336140000256,6.467758659000026],[3.349627104000006,6.467302575000037],[3.3497706160000673,6.466828014000029],[3.350487387000043,6.465975982000053],[3.3510366300001015,6.465689117000032],[3.3518734620000634,6.465883761000061],[3.352570985000045,6.46628056200003],[3.353027614000079,6.466105894000055],[3.3533509520000093,6.465747437000061],[3.353520627000015,6.465046077000029],[3.3535569380000885,6.464160929000066],[3.353609327000071,6.463707575000036],[3.354047149000059,6.463282762000059],[3.354665422000056,6.462928871999999],[3.3552369590000053,6.462664959000012],[3.3569254770000923,6.462530189000052],[3.357242792000057,6.456897225000006],[3.357097010000074,6.4548918210000785],[3.3569981750000677,6.453532905999996],[3.3524108620000304,6.452044855000064],[3.3523237920000204,6.447614688000062],[3.3504197810000447,6.443568231000011],[3.349784833000089,6.435396275000031],[3.3451039970000407,6.434920413000004],[3.3412957120000675,6.436030739000035],[3.3388273880000297,6.436401229000047],[3.3343911200000553,6.43596746200004],[3.3313412960000433,6.434137804000088],[3.3323578840000456,6.43007147300008],[3.3358142420000325,6.4284448260000495],[3.339067244000069,6.427631776000013],[3.342930032000022,6.427225183000033],[3.3459797000000213,6.427834981000039],[3.349232694000057,6.429461344000046],[3.351672382000035,6.429868093000039],[3.35431552300006,6.428851614000045],[3.3575461760000236,6.429648950000026],[3.362989909000045,6.427566586000037],[3.366263867000039,6.4258116590000505],[3.36879425200006,6.425489689000056],[3.3720404690000683,6.425539615000012],[3.3734610080000094,6.427005618000074],[3.37451538500003,6.428826877000041],[3.374482149000033,6.430992583999998],[3.3758806220001025,6.43390238400006],[3.379137985000056,6.433230345000055],[3.3781333980000694,6.42816037100005],[3.376729390000075,6.425611679000024],[3.377500596000025,6.422374049000016],[3.3800586150000234,6.420247373000091],[3.380949058000069,6.418076174000035],[3.3831854290000107,6.420719007000034],[3.3833887550000474,6.423768979000059],[3.3827788760000344,6.426005277000083],[3.381558887000078,6.42885167400005],[3.3842020190000133,6.430884945000063],[3.3880648570000593,6.4331211470000795],[3.392131052000056,6.432104449000068],[3.3959939660000193,6.43190134700005],[3.399880366000061,6.434388748000067],[3.398840411000079,6.436780423000069],[3.393147724000065,6.441863384999994],[3.385644207000058,6.446019227000036],[3.3799324090000615,6.4491824780001075],[3.3768828040000676,6.452232243000026],[3.376004485000048,6.454379596000063],[3.375053161000028,6.456705018000001],[3.376679626000043,6.459754815000011],[3.3787889140000393,6.461384821000053],[3.3811626580000675,6.463217256000057],[3.379278854000076,6.466556530000037],[3.3770971330000377,6.468242711000109],[3.3744194359999957,6.468837167000089],[3.369659200000039,6.467746870000028],[3.366639262000013,6.46765123600002],[3.3664833489999912,6.4681247610000305],[3.3657652900000867,6.468411291000024],[3.364993718000018,6.468310124000002],[3.364403493000032,6.4683193940000585],[3.3637087560000145,6.471515238000073],[3.365058359000037,6.475946754000098]]]},"properties":{"FID":4,"Shape_Leng":0.281546921406,"Shape_Area":0.00164032435341,"ADM2_EN":"Apapa","ADM2_PCODE":"NG025005","ADM2_REF":"Apapa","ADM2ALT1EN":" ","ADM2ALT2EN":" ","ADM1_EN":"Lagos","ADM1_PCODE":"NG025","ADM0_EN":"Nigeria","ADM0_PCODE":"NG","date":1480377600000,"validOn":1555459200000,"validTo":null,"SD_EN":"Lagos Central","SD_PCODE":"NG02502"}},{"type":"Feature","id":5,"geometry":{"type":"Polygon","coordinates":[[[3.1039462040001053,6.49945931100007],[3.1015408390000365,6.499492355000051],[3.100608909000111,6.500694573000047],[3.0959016190000943,6.501701958000087],[3.0947208440000074,6.501485364000107],[3.091651972000018,6.502498208000066],[3.0819999690000577,6.503586091000017],[3.073605827000079,6.503761193000027],[3.0642795990000726,6.503920990000015],[3.0462736870000873,6.502695986999999],[3.0301382550000566,6.503189509000066],[3.0244041010000755,6.504091071000055],[3.0235515760000586,6.504813368000043],[3.009834730000036,6.507387659000056],[2.9921038970000735,6.508340927000059],[2.985538159000032,6.5107207240000555],[2.969992340000025,6.511086765000055],[2.955684175000015,6.511783762000082],[2.9485480610000314,6.5110438330000555],[2.94044896800004,6.512153678000047],[2.934545436000078,6.512055923000041],[2.927114087000091,6.510378045000035],[2.9233752320000894,6.510938058000008],[2.9214851960000265,6.512461372000104],[2.9121328250000778,6.514171536000028],[2.9056388350000217,6.512197939999979],[2.9019309850000097,6.510892397000049],[2.8981972660000777,6.511141057000017],[2.8869293080000835,6.510953090000008],[2.888858791000035,6.50834366600002],[2.8899955670000343,6.506023981000023],[2.8922748560000633,6.501963203000031],[2.8944890510000354,6.499014275000018],[2.8963069860000834,6.495014715000028],[2.8966705860000586,6.491742699000017],[2.8966705820000582,6.4877433680000465],[2.8952665430000613,6.4848508010000785],[2.8930346960000497,6.480108271000077],[2.8893990570000616,6.476109021000113],[2.8853998220000987,6.473564244000055],[2.8799462360000616,6.469928225000036],[2.8737654680000757,6.47065546699999],[2.8686754710001017,6.471746511000024],[2.8664941780000097,6.471382692000031],[2.859586250000077,6.4677471470000505],[2.8578076310000844,6.460039958000067],[2.8558959940000106,6.457809107000049],[2.854747054000071,6.453577940000081],[2.8538460830000423,6.451702045000033],[2.852550747000069,6.449971292000004],[2.8421854990000694,6.443988688000072],[2.833001370000008,6.443141082000107],[2.8315885120000805,6.4448367450000745],[2.828480006000098,6.446814409000105],[2.823676100000081,6.451477146000077],[2.818306933000012,6.454585503000047],[2.8130791270000044,6.45599844700007],[2.8062970700000056,6.458824703000058],[2.7992324829999893,6.460095886000076],[2.7941460590000444,6.4593896199999925],[2.7899072160000626,6.457411175000075],[2.7863748060000004,6.455009447000041],[2.78411412700009,6.452748821000046],[2.77916907900003,6.452042485000046],[2.7759192000000743,6.452466567000052],[2.7737998950000486,6.45246642200004],[2.768713242999996,6.451335868000022],[2.76362680600005,6.451759949000028],[2.7586815340000603,6.452042509000048],[2.7526059160000704,6.451194716000067],[2.747943410000029,6.449358057000069],[2.7444109980000553,6.449075298000032],[2.739607089000038,6.454444354000003],[2.735445981000093,6.457930508000057],[2.732699870000075,6.45793041900005],[2.7228834580001005,6.4586578640000205],[2.719611412000087,6.459384884000045],[2.7137942370000756,6.459021061000051],[2.7101583540000673,6.456112888000035],[2.702610966000072,6.452376882000092],[2.702542063000055,6.447737318000083],[2.702536111000007,6.443684981000079],[2.702857972000081,6.441420216000008],[2.7026910860000397,6.4384998530000495],[2.7024419310000303,6.4361472690000845],[2.702274084000087,6.433227146000057],[2.7026770170000303,6.430397137000025],[2.7025089360000676,6.427476732000063],[2.7028319850000626,6.425211987000083],[2.702905891000049,6.420594101000091],[2.7026569780000598,6.41824094599999],[2.702409027000061,6.415886953999998],[2.7021598930000534,6.4135340900000095],[2.7028059940000437,6.409005173000008],[2.703208930000076,6.406174289999992],[2.7030410760000434,6.403255036000036],[2.702791935000035,6.400900745000019],[2.703196046000076,6.398069881000005],[2.7029469010000673,6.395717015000017],[2.70335102300002,6.392886151000003],[2.703835007000097,6.389490020000025],[2.703747028000101,6.386004051000075],[2.70357895400005,6.383083938000048],[2.7034919180000427,6.379598281000035],[2.704056981000078,6.375636031000024],[2.703980441000051,6.372600470000037],[2.7137942360000755,6.3735820029999815],[2.7352447520000522,6.376127124000067],[2.7552413859999936,6.380126577000048],[2.7716019189999974,6.38230797200006],[2.7894170310000055,6.383398656000065],[2.8123219110000575,6.387397673000098],[2.835954186999987,6.388852027000084],[2.8504970100000504,6.391760934000072],[2.8781282980000134,6.392488125000021],[2.9010333950000833,6.393578487000088],[2.923211097000009,6.393578558000094],[2.9512062080000545,6.395396326000039],[2.9701118390000536,6.396123447999983],[2.994107480000028,6.395760008000021],[3.0053782550000774,6.395396225000031],[3.023193371000086,6.39466901800008],[3.042462591000059,6.395396079000019],[3.047050777999991,6.395563156999987],[3.049516881000023,6.400871530000089],[3.056099875000071,6.405615122],[3.0696495860000317,6.409312509000035],[3.0771623240000023,6.41030348500005],[3.085125577000034,6.40926843600003],[3.0863525650000367,6.409740467000095],[3.088792078,6.410147267000092],[3.0912318160000707,6.409130524000076],[3.0942816819999974,6.408113996000079],[3.097737794000053,6.407707094000074],[3.102617265000016,6.408520830000079],[3.106886890000058,6.409130540999989],[3.106683500000016,6.4123835790000285],[3.1074967520000696,6.416042697000005],[3.108513350000073,6.420109245000031],[3.109123254999999,6.425191744000095],[3.106886857000055,6.428648596000034],[3.1060736210000917,6.431697948000007],[3.1070902150000057,6.434747626000007],[3.1066834930000153,6.438000778000056],[3.104650519000116,6.440643850000075],[3.1028206590000584,6.444099888000036],[3.1007874090000476,6.44796270700008],[3.0993642730000692,6.450605965000026],[3.097534683000034,6.4540619820000735],[3.0957047820000616,6.4556886130001025],[3.0944847970001055,6.458128539000011],[3.0934684280000324,6.460364878000039],[3.0935976400000653,6.464630214000081],[3.0936715640000534,6.467073786000114],[3.097127906000039,6.46605728600003],[3.102210738000042,6.465447376000014],[3.1068868600000554,6.468700402000053],[3.1107497420000163,6.468903589000078],[3.1133928240000364,6.470326971000077],[3.115222431000073,6.471750242000066],[3.115832571000019,6.4737830250000385],[3.1162390540000784,6.4760194000000695],[3.116645816000072,6.480288903000012],[3.1154258470000284,6.482322219000029],[3.113189481000087,6.483948607000038],[3.111766359000021,6.485575060000052],[3.1119694640000395,6.487811557000004],[3.1119694740000403,6.491674365000048],[3.1066835060000164,6.494114479000061],[3.1039462040001053,6.49945931100007]]]},"properties":{"FID":5,"Shape_Leng":1.08889756807,"Shape_Area":0.0369853744767,"ADM2_EN":"Badagry","ADM2_PCODE":"NG025006","ADM2_REF":"Badagry","ADM2ALT1EN":" ","ADM2ALT2EN":" ","ADM1_EN":"Lagos","ADM1_PCODE":"NG025","ADM0_EN":"Nigeria","ADM0_PCODE":"NG","date":1480377600000,"validOn":1555459200000,"validTo":null,"SD_EN":"Lagos West","SD_PCODE":"NG02501"}},{"type":"Feature","id":6,"geometry":{"type":"Polygon","coordinates":[[[4.241102759000035,6.382299927000105],[4.2487964880000595,6.381254208000001],[4.277065705000047,6.37827858],[4.30186319800002,6.376046672000072],[4.3296066040000225,6.372818903000081],[4.346622405000065,6.370839257000064],[4.350837715000053,6.371037511000036],[4.350837695000052,6.377373772000098],[4.350837698000052,6.389730584000034],[4.350837702000052,6.415349108999994],[4.350837707000053,6.4216833769999795],[4.350837749000056,6.427625099000082],[4.350093832000055,6.429857240000029],[4.347614242000062,6.431345019000027],[4.344638305000035,6.433824603000019],[4.343398618000047,6.4358082500000116],[4.337199247000032,6.439528069000037],[4.332735513000006,6.43952798600003],[4.324056663000007,6.437792262000034],[4.316617421000077,6.438040255000036],[4.3092264620000575,6.439470816000007],[4.303938362000035,6.439470836000098],[4.30193990100006,6.438798896000012],[4.298721782000068,6.435182923000053],[4.295577053000019,6.434611238000091],[4.291146817000011,6.436612182000005],[4.287573395000019,6.436040265000024],[4.2840003800000614,6.436755303000034],[4.281284852000087,6.438755897000007],[4.278997934000048,6.437898665000045],[4.276282371999982,6.439613245999979],[4.275138789000041,6.441900275000027],[4.272423218000063,6.442757967000027],[4.268421627000083,6.442471979000079],[4.2657060620000165,6.442900627000018],[4.263808781000065,6.443560554000086],[4.259145677000062,6.442461051000063],[4.254343550000015,6.441328609000067],[4.253342638000066,6.439041530000015],[4.253963956000049,6.436204899000057],[4.253271547000046,6.4343250890000405],[4.249984272000105,6.43375340299999],[4.245267315999999,6.434468201000069],[4.243409575000032,6.436183494000062],[4.236883159000047,6.438172931000089],[4.2374067360000245,6.441900222000111],[4.235691493000036,6.444758762000017],[4.233404685000006,6.445473654000104],[4.230688985000017,6.445473619000012],[4.22797342900004,6.444758834000023],[4.2258296140000295,6.445616283000092],[4.223792609000063,6.4486149950000495],[4.221828004000048,6.450475729000086],[4.219969701000035,6.455478139000007],[4.218754712000048,6.4597660410000515],[4.217325681000026,6.463053265000077],[4.215181864000015,6.463339233000024],[4.213389431000034,6.464474753000008],[4.207791753000065,6.464179123000061],[4.2057485660000316,6.463053313999993],[4.203461599000078,6.461909892000065],[4.200460493000011,6.463196252000007],[4.193742806000009,6.46319629500001],[4.192170607000043,6.46548311100004],[4.189598101000089,6.466483644000046],[4.186025192000051,6.467055307000095],[4.18288032300008,6.4684843190000265],[4.177449655000074,6.470056441000075],[4.174734128000099,6.472057958000036],[4.172018566000033,6.473629885000069],[4.168302066000016,6.4742017430000445],[4.164872162000086,6.474630386000072],[4.161073194999996,6.474720079000033],[4.160954526000036,6.47681911399998],[4.160012800000099,6.481776816000021],[4.159441002000039,6.487207961000067],[4.1583828930000655,6.489767925000049],[4.157010980000062,6.492209851000034],[4.155010269000079,6.496640615000086],[4.156153691000006,6.498784591000021],[4.16058447700006,6.500642806000027],[4.165502056000068,6.502708900000091],[4.167706033000083,6.503632991000078],[4.173997915000025,6.508666917000031],[4.174899126000073,6.510542849000082],[4.17637113800001,6.512509937000036],[4.178334270000081,6.515130952000007],[4.181109885000054,6.516143886000062],[4.185030038000046,6.51733407600004],[4.191804906000072,6.51897204800003],[4.19400976000007,6.519895155000025],[4.198338941999977,6.52230772999998],[4.201116097000077,6.52332025300009],[4.203321027000082,6.524242731000033],[4.206097071000001,6.525256054000032],[4.211143909000046,6.528088491000087],[4.2144403330000335,6.531934308000057],[4.222256721000082,6.537740708000065],[4.224712860000088,6.543100378000059],[4.227616367000073,6.55158662700002],[4.226499601000042,6.553596635000062],[4.228733101000013,6.557616090000099],[4.225383271000047,6.561189173000063],[4.2231082330001035,6.561960685000038],[4.22198343700003,6.565439835000046],[4.22003655800006,6.567516704000113],[4.218013327000079,6.569675371000109],[4.21741340500009,6.572402830000005],[4.2153334210000315,6.577714878000055],[4.212653666999997,6.578608479000007],[4.211760601000001,6.581735105000067],[4.207517195999997,6.5839681160000865],[4.204390985000059,6.585531244000013],[4.2014874670000735,6.586871162000033],[4.19958502500005,6.588473749000027],[4.198807673000036,6.585754805000036],[4.1941180480000595,6.585531365000023],[4.186748515000036,6.584861178000082],[4.1796021850000065,6.58642492600006],[4.178262167000066,6.588657932000078],[4.1749124050000175,6.589774741000024],[4.1715626920000615,6.591560728000005],[4.169150354000037,6.592352989000098],[4.166342255000042,6.593373704999998],[4.162237171000114,6.592182036000075],[4.15972093700002,6.590592774000029],[4.155615744000083,6.586752462000071],[4.15095512400002,6.5812961730000765],[4.1447990290000325,6.578747467000049],[4.141882782000059,6.577807297000064],[4.13913843900001,6.576644137000102],[4.133595717000058,6.574148053000076],[4.1318057210000125,6.573222748999989],[4.130525459000043,6.572078983000033],[4.128857337000045,6.570985747000083],[4.124665239000023,6.568559199000038],[4.12220902300001,6.566325564000056],[4.119975567000043,6.564985652000036],[4.116402626000002,6.563422710000037],[4.110596169000078,6.558286054000021],[4.11059619100008,6.555606404000084],[4.109479391000046,6.552256484000022],[4.109479467000052,6.5484303080000785],[4.10168021800009,6.547468365000068],[4.094421288999981,6.546886518000065],[4.0935831710000015,6.549289300000098],[4.095366998999981,6.55073299700009],[4.091971917000001,6.55528264600003],[4.089619192000025,6.55596213300003],[4.091167493000056,6.558509378000025],[4.090641964000006,6.561825173000017],[4.0886077690000056,6.562638644000089],[4.087188729000011,6.560910701000026],[4.086427775000021,6.559418240000085],[4.082932943000048,6.559184806000044],[4.080267867000074,6.560401511000084],[4.076335390000039,6.561621789000064],[4.074369379000085,6.562299600000102],[4.071724860000034,6.562435557000072],[4.068231056000058,6.563551991000075],[4.064938036000085,6.562396160000009],[4.065440646000105,6.566706134000103],[4.067058558000034,6.5695500100000395],[4.0662841350000845,6.571547484000021],[4.06609766100011,6.575692744999987],[4.0648865490000885,6.580557285000047],[4.0632047740000266,6.582680706000058],[4.062079381000081,6.586159078000001],[4.061119977000014,6.588450783999992],[4.0592618020000115,6.594275896000038],[4.05749941500003,6.596439745000019],[4.057574356000013,6.599493452999997],[4.055875357000036,6.603553282000089],[4.055933435000045,6.605656073999992],[4.056022636000054,6.6088761410000565],[4.056531843000086,6.611081664000022],[4.053805902000049,6.614354157000072],[4.051404969999992,6.616016498000036],[4.050481298000039,6.619155887999998],[4.053805861000046,6.621002682000036],[4.056575741000077,6.624696121000099],[4.057683966000112,6.627466735000013],[4.0586076120000625,6.629867478000055],[4.057868895000047,6.633930118000023],[4.0587921620000555,6.635962053000103],[4.061562482000034,6.6367005540001],[4.064332561000081,6.636146418000081],[4.066693271000097,6.634893777000087],[4.068395593999994,6.633191704000033],[4.070426931000024,6.633191641000028],[4.074559235999984,6.635638607000075],[4.076706399000005,6.63707004700003],[4.078922810000072,6.637439243000113],[4.081508188000025,6.6376243030000595],[4.084463184000096,6.639840023000069],[4.085386228000085,6.6427951590000625],[4.087972182000086,6.644827005000046],[4.089633982000094,6.648335469000081],[4.090557608000043,6.6507364030000495],[4.091480764000042,6.652583154000084],[4.095231067000014,6.651519377000085],[4.092588919999982,6.656461745000101],[4.093327558000079,6.658677635000036],[4.0918502950000635,6.6603399060000825],[4.0914807250000385,6.662371669000059],[4.090372532000095,6.6660651320000355],[4.091850294000063,6.667911961000076],[4.094251211000031,6.670681975000029],[4.092773395000058,6.6725287630000665],[4.092404302000072,6.675114726000068],[4.091296251000052,6.676961370000093],[4.091480698000036,6.67899264700003],[4.078527024000009,6.6791763390000405],[4.07316205500011,6.679252569000042],[4.0501803920001,6.680025123000103],[4.019699532000085,6.6799414690000205],[3.9791255500000267,6.682415390000077],[3.947232830000078,6.680181193000049],[3.919335189000015,6.680661209000064],[3.9168367170000584,6.6807039830000505],[3.8153736530000293,6.682108532000001],[3.70786502500001,6.683033983000012],[3.6999621210000866,6.68237485500001],[3.6987605180000527,6.678770058000087],[3.6974828190000286,6.676397464000065],[3.695969581000056,6.673587343000079],[3.6917171490000156,6.668005877000031],[3.6907868620000484,6.665480586000076],[3.6907868410000466,6.662557001000028],[3.6902553840000385,6.660430893000061],[3.68985678900001,6.6584378179999995],[3.6901223820000473,6.6557797840000745],[3.6887933750000412,6.653919331000061],[3.6863532250000253,6.650095869000076],[3.68480679800006,6.647673247000089],[3.6828134190000616,6.643819238000063],[3.6822817590000367,6.63996551400006],[3.6825475880000047,6.6377062610000905],[3.6848068210000617,6.634384206000025],[3.6862685560000363,6.63278948200006],[3.6889264490000384,6.631593317000032],[3.6905209840000763,6.629334099000065],[3.6922488670000453,6.627207658000071],[3.6941092140000498,6.626277414000107],[3.6966340680000576,6.625878779000075],[3.6980960470000523,6.622689801000007],[3.7003550790000928,6.618304213000052],[3.7004881120000865,6.614317429000053],[3.7015512030000286,6.61245686000003],[3.7022156600000278,6.608736055000101],[3.704659215000059,6.604873677000093],[3.702712996000055,6.602274080000029],[3.700750103000092,6.599652765000034],[3.6987879450000127,6.597031153000014],[3.6967439430000892,6.594975827000042],[3.6951909100000213,6.5935759110000305],[3.693639035000049,6.592175985000019],[3.6915139870000813,6.5906869370000045],[3.6894709950000637,6.588631010000071],[3.687346910999998,6.5871419520000565],[3.6846509150000406,6.585563181000079],[3.6820359700000393,6.583417804000028],[3.6799120669999885,6.581929278000057],[3.677869102000062,6.5798741360001],[3.6754150630000515,6.57659723100004],[3.6728809100000737,6.57388605200007],[3.670346021000035,6.571175975000102],[3.6683841070000645,6.568553917000045],[3.6641350180000343,6.5655760780000385],[3.659074060000065,6.56420625000003],[3.65580700000002,6.56253810500003],[3.6525390220000764,6.560870213000051],[3.6503350920000655,6.5599469550000435],[3.6482910960000536,6.557890775000001],[3.6473910940000165,6.556014942000047],[3.6458380020000325,6.554615085000041],[3.6425264040000327,6.5502147580000205],[3.641582966000043,6.547584003000043],[3.6401109510000174,6.545618099000009],[3.638961054000087,6.541388133000051],[3.6380601020000602,6.5395111480000025],[3.637239907000054,6.537067839999992],[3.63600991199998,6.533403044000078],[3.6346190130000933,6.530870838000084],[3.6324069290000294,6.5258961430000575],[3.6315870760000513,6.52345312000007],[3.630276918000006,6.520355168000073],[3.6294570220000244,6.517911843000061],[3.627084003000056,6.514069147999994],[3.627568020000047,6.510672224000039],[3.625454875000087,6.511104125999982],[3.62574223500006,6.50846962600005],[3.6280855870000606,6.50181719900003],[3.6287660690000534,6.499246953000085],[3.628766042000051,6.495996371000071],[3.626876113999997,6.494333744000084],[3.622869496000045,6.493199881000059],[3.619997057000055,6.491612076000045],[3.6194676920000424,6.489344000000056],[3.620148160000034,6.487076162000086],[3.6221892840000747,6.486018091000027],[3.626314876000012,6.48498583300006],[3.6289555990000144,6.4843765500000075],[3.634135701000072,6.481837238000047],[3.6368779670000384,6.4804149210000475],[3.6397220960000842,6.479196139000102],[3.642058130000101,6.4796022580000425],[3.6442926070000636,6.482345164000062],[3.646324151000022,6.486001605000084],[3.6478476960000483,6.488439068000055],[3.6526215240000637,6.490876803000049],[3.655770074000073,6.491790676000079],[3.6596298240000413,6.491892226000044],[3.6638269530000356,6.491602414000045],[3.7637603310000634,6.534254093000062],[3.796492770000035,6.547644623000085],[3.818314563000089,6.556323477999996],[3.831705130000027,6.560291171000102],[3.8485672240000524,6.5630188360000155],[3.8567502280000587,6.562026889000009],[3.8604700749999976,6.5610351690000215],[3.8689009360000837,6.557563170000073],[3.872372616000095,6.5558277210000995],[3.9233719680000645,6.513460148000053],[3.9341550400000846,6.503828503000001],[3.937087099000034,6.502900011000094],[3.941819025000046,6.502481874000047],[3.9449990380000832,6.500664261000026],[3.946955033000008,6.499232744000064],[3.950545078000043,6.498637083000073],[3.9546249380000154,6.498695866000052],[3.9599019970000127,6.499246722000066],[3.959666470000065,6.431384080000061],[3.9633887010000235,6.431026373000041],[3.9862935210000705,6.427027112000076],[3.9971034130000893,6.425187168999983],[3.997103504000008,6.490765021000037],[4.000719955000007,6.490850871000035],[4.003656816999999,6.49073214700007],[4.008551054000029,6.489182112000073],[4.009445244000029,6.487007232000067],[4.009357977000003,6.483520941000091],[4.012780212000009,6.480003927000059],[4.013834931000058,6.476696823000076],[4.015380933000077,6.47404472700002],[4.017417878000038,6.472049276000028],[4.024106925000068,6.470201012000047],[4.026473045999999,6.4699912650000115],[4.030304866000054,6.467697102000084],[4.03413679800003,6.465402067000085],[4.037725966000081,6.464805266999999],[4.041316097000034,6.4642090000000465],[4.044985764999995,6.463046037000012],[4.050202912000009,6.459230780999995],[4.051749257000057,6.456580223000067],[4.053376241000026,6.453361864000055],[4.056387919999991,6.448624249000016],[4.058506000000004,6.446061079000035],[4.065838774000006,6.439683795000043],[4.068528118000034,6.437211075000086],[4.069912895000036,6.4356909430000755],[4.071949922000004,6.433693786000031],[4.07657907800004,6.435064259000093],[4.082034615000061,6.435064402000016],[4.087378082000046,6.4361046430000215],[4.089824226000114,6.435330049000058],[4.094147220000042,6.4336909680000645],[4.098873177000004,6.429221288000079],[4.100749020000047,6.428356195999999],[4.102623009000026,6.427492200000099],[4.104498821000067,6.426628219000023],[4.107597806000061,6.425375029000072],[4.109963837000072,6.425167004000091],[4.1162447400000834,6.424272478000063],[4.127413766000063,6.429857234000028],[4.140556369000001,6.432584700000103],[4.144771605000073,6.433080651000104],[4.151714816999994,6.430849099000028],[4.158658558000048,6.421921681000068],[4.165353768000055,6.420185969000073],[4.180975930000073,6.421177883000077],[4.18670562800004,6.422165807000017],[4.195358303000005,6.423658021000026],[4.2047815660000465,6.419442214000085],[4.211476810000057,6.41026722900007],[4.214948235000047,6.404563879000062],[4.241102759000035,6.382299927000105]]]},"properties":{"FID":6,"Shape_Leng":2.40174827755,"Shape_Area":0.0965468605813,"ADM2_EN":"Epe","ADM2_PCODE":"NG025007","ADM2_REF":"Epe","ADM2ALT1EN":" ","ADM2ALT2EN":" ","ADM1_EN":"Lagos","ADM1_PCODE":"NG025","ADM0_EN":"Nigeria","ADM0_PCODE":"NG","date":1480377600000,"validOn":1555459200000,"validTo":null,"SD_EN":"Lagos East","SD_PCODE":"NG02503"}},{"type":"Feature","id":7,"geometry":{"type":"Polygon","coordinates":[[[3.6294570220000244,6.517911843000061],[3.6158392650000293,6.5194312470000995],[3.589456557000079,6.5262347400000955],[3.570369040000041,6.512778884000085],[3.569461851000031,6.502724568000055],[3.572183366000057,6.491460808000053],[3.559218911000115,6.4768710590001035],[3.512387718000052,6.467648515000061],[3.500292555000004,6.461903530000072],[3.4709996990000525,6.464700161000096],[3.4634401820000305,6.466590463000003],[3.4569389610000867,6.468858115000046],[3.4450707480000764,6.469538772000053],[3.4294982020000786,6.4690848140000625],[3.4203512870000763,6.468026749000003],[3.411052932000067,6.4643225810000295],[3.406318196,6.46449613400009],[3.40631821000009,6.460479367000097],[3.407241125000069,6.457157506000048],[3.4085214490000437,6.453557077000042],[3.409209221000018,6.451622364000102],[3.4081926590001066,6.447149187000004],[3.4071760010000096,6.4436931190000415],[3.4043297580000553,6.438610641000068],[3.4018900659999884,6.436170569000058],[3.399880366000061,6.434388748000067],[3.402906682999993,6.4274282180000455],[3.3980271960000286,6.40669060500008],[3.4023463589999947,6.400687280000032],[3.403794055000051,6.4045280910000315],[3.404695042000081,6.406404852000062],[3.404863115000043,6.409325124000102],[3.4052910820001037,6.412123311000077],[3.412941698000025,6.4172104970000845],[3.419122503000014,6.418664994000082],[3.446753746000062,6.41939216200003],[3.4674773010000193,6.420119155000052],[3.487837312000095,6.420119411000073],[3.50892449900003,6.419392113000114],[3.539828080000027,6.421573533000039],[3.574730864000073,6.4212099260000635],[3.6179959790000416,6.4223008080000845],[3.630803101000022,6.422573109000055],[3.673037069000027,6.475641097000032],[3.6715135570000035,6.478891266000101],[3.670700815999992,6.484985779000056],[3.6695835510000974,6.488032715000006],[3.6670444130000623,6.490165609000002],[3.6638269530000356,6.491602414000045],[3.6596298240000413,6.491892226000044],[3.655770074000073,6.491790676000079],[3.6526215240000637,6.490876803000049],[3.6478476960000483,6.488439068000055],[3.646324151000022,6.486001605000084],[3.6442926070000636,6.482345164000062],[3.642058130000101,6.4796022580000425],[3.6397220960000842,6.479196139000102],[3.6368779670000384,6.4804149210000475],[3.634135701000072,6.481837238000047],[3.6289555990000144,6.4843765500000075],[3.626314876000012,6.48498583300006],[3.6221892840000747,6.486018091000027],[3.620148160000034,6.487076162000086],[3.6194676920000424,6.489344000000056],[3.619997057000055,6.491612076000045],[3.622869496000045,6.493199881000059],[3.626876113999997,6.494333744000084],[3.628766042000051,6.495996371000071],[3.6287660690000534,6.499246953000085],[3.6280855870000606,6.50181719900003],[3.62574223500006,6.50846962600005],[3.625454875000087,6.511104125999982],[3.627568020000047,6.510672224000039],[3.627084003000056,6.514069147999994],[3.6294570220000244,6.517911843000061]]]},"properties":{"FID":7,"Shape_Leng":0.750129292963,"Shape_Area":0.0156158589452,"ADM2_EN":"Eti-Osa","ADM2_PCODE":"NG025008","ADM2_REF":"Eti-Osa","ADM2ALT1EN":" ","ADM2ALT2EN":" ","ADM1_EN":"Lagos","ADM1_PCODE":"NG025","ADM0_EN":"Nigeria","ADM0_PCODE":"NG","date":1480377600000,"validOn":1555459200000,"validTo":null,"SD_EN":"Lagos Central","SD_PCODE":"NG02502"}},{"type":"Feature","id":8,"geometry":{"type":"MultiPolygon","coordinates":[[[[4.069912895000036,6.4356909430000755],[4.068528118000034,6.437211075000086],[4.065838774000006,6.439683795000043],[4.058506000000004,6.446061079000035],[4.056387919999991,6.448624249000016],[4.053376241000026,6.453361864000055],[4.051749257000057,6.456580223000067],[4.050202912000009,6.459230780999995],[4.044985764999995,6.463046037000012],[4.041316097000034,6.4642090000000465],[4.037725966000081,6.464805266999999],[4.03413679800003,6.465402067000085],[4.030304866000054,6.467697102000084],[4.026473045999999,6.4699912650000115],[4.024106925000068,6.470201012000047],[4.017417878000038,6.472049276000028],[4.015380933000077,6.47404472700002],[4.013834931000058,6.476696823000076],[4.012780212000009,6.480003927000059],[4.009357977000003,6.483520941000091],[4.009445244000029,6.487007232000067],[4.008551054000029,6.489182112000073],[4.003656816999999,6.49073214700007],[4.000719955000007,6.490850871000035],[3.997103504000008,6.490765021000037],[3.9971034130000893,6.425187168999983],[4.00338119900002,6.424118473000021],[4.022650673000014,6.420482730000025],[4.035739482000031,6.417937854000048],[4.039031083000064,6.417937827000046],[4.051409757000033,6.416218151000045],[4.0762071770000885,6.4117550310000695],[4.10670754200003,6.405307770000061],[4.150846923000038,6.397124266000013],[4.197714353000079,6.388197508000108],[4.241102759000035,6.382299927000105],[4.214948235000047,6.404563879000062],[4.211476810000057,6.41026722900007],[4.2047815660000465,6.419442214000085],[4.195358303000005,6.423658021000026],[4.18670562800004,6.422165807000017],[4.180975930000073,6.421177883000077],[4.165353768000055,6.420185969000073],[4.158658558000048,6.421921681000068],[4.151714816999994,6.430849099000028],[4.144771605000073,6.433080651000104],[4.140556369000001,6.432584700000103],[4.127413766000063,6.429857234000028],[4.1162447400000834,6.424272478000063],[4.109963837000072,6.425167004000091],[4.107597806000061,6.425375029000072],[4.104498821000067,6.426628219000023],[4.102623009000026,6.427492200000099],[4.100749020000047,6.428356195999999],[4.098873177000004,6.429221288000079],[4.094147220000042,6.4336909680000645],[4.089824226000114,6.435330049000058],[4.087378082000046,6.4361046430000215],[4.082034615000061,6.435064402000016],[4.07657907800004,6.435064259000093],[4.071949922000004,6.433693786000031],[4.069912895000036,6.4356909430000755]]],[[[3.946955033000008,6.499232744000064],[3.9449990380000832,6.500664261000026],[3.941819025000046,6.502481874000047],[3.937087099000034,6.502900011000094],[3.9341550400000846,6.503828503000001],[3.9233719680000645,6.513460148000053],[3.872372616000095,6.5558277210000995],[3.8689009360000837,6.557563170000073],[3.8604700749999976,6.5610351690000215],[3.8567502280000587,6.562026889000009],[3.8485672240000524,6.5630188360000155],[3.831705130000027,6.560291171000102],[3.818314563000089,6.556323477999996],[3.796492770000035,6.547644623000085],[3.7637603310000634,6.534254093000062],[3.6638269530000356,6.491602414000045],[3.6670444130000623,6.490165609000002],[3.6695835510000974,6.488032715000006],[3.670700815999992,6.484985779000056],[3.6715135570000035,6.478891266000101],[3.673037069000027,6.475641097000032],[3.630803101000022,6.422573109000055],[3.6419916060000146,6.422664157000039],[3.6616244360000527,6.423391316000075],[3.6790759940000894,6.423027905000026],[3.699799538000046,6.425936208000053],[3.725612872000048,6.427390627000044],[3.734702369000007,6.427754352000029],[3.7485180210000335,6.429935315000005],[3.760515892000025,6.431389735999996],[3.7659695350000666,6.433571211000103],[3.7841479910000286,6.43538899200005],[3.7990543570000623,6.437570576000077],[3.810325157000025,6.437934308000063],[3.821232335000011,6.4379344820000775],[3.8354115510000097,6.437934430000073],[3.8550443670000467,6.437570518000072],[3.8717687040000426,6.4368434800000465],[3.8903108100000727,6.4372073450000435],[3.9066715480000047,6.436843298000031],[3.917578695999988,6.434661965000025],[3.9444828470000948,6.432844038000066],[3.959666470000065,6.431384080000061],[3.9599019970000127,6.499246722000066],[3.9546249380000154,6.498695866000052],[3.950545078000043,6.498637083000073],[3.946955033000008,6.499232744000064]]]]},"properties":{"FID":8,"Shape_Leng":1.42859627755,"Shape_Area":0.0369535029305,"ADM2_EN":"Ibeju/Lekki","ADM2_PCODE":"NG025009","ADM2_REF":"Ibeju/Lekki","ADM2ALT1EN":" ","ADM2ALT2EN":" ","ADM1_EN":"Lagos","ADM1_PCODE":"NG025","ADM0_EN":"Nigeria","ADM0_PCODE":"NG","date":1480377600000,"validOn":1555459200000,"validTo":null,"SD_EN":"Lagos East","SD_PCODE":"NG02503"}},{"type":"Feature","id":9,"geometry":{"type":"Polygon","coordinates":[[[3.352653629000044,6.658717711000065],[3.3476362590000397,6.669185373000101],[3.3448355860000367,6.672755034000048],[3.3427974700000673,6.673735040000043],[3.3349962100000274,6.6736144690000145],[3.328786269000026,6.673373946000009],[3.323865431000015,6.673875677000044],[3.314664787000008,6.67546707],[3.3113083290000267,6.677582587000067],[3.3024418050000426,6.680912986000024],[3.2983719110000953,6.682439352000106],[3.2960468230000073,6.683270205000017],[3.290516343000003,6.6857852000000975],[3.288480260000024,6.686620510000111],[3.287864544000061,6.687031433000094],[3.2823470040000613,6.690715383000082],[3.274172866000078,6.69593470400001],[3.271849973999994,6.696620752000019],[3.267937722000034,6.697282196000035],[3.2645989670000075,6.698241398999997],[3.262429504000095,6.698352113000098],[3.262002861000055,6.697911903000001],[3.262496200000018,6.696402297000063],[3.2625359730001113,6.695919368000073],[3.2611343710000495,6.6931162270000435],[3.2598617250000883,6.69093432199999],[3.2594410500000093,6.690226274000025],[3.2605039980000283,6.689196147000057],[3.2621548720000204,6.687516168000055],[3.262487325000083,6.687033859000028],[3.262946064000025,6.686269524000025],[3.2685494430000217,6.681158590000095],[3.269702167000008,6.680161496000018],[3.269973196000051,6.67582000500007],[3.271068851000023,6.674578106000077],[3.2735309689999914,6.670259874000099],[3.2755142260000403,6.668384372000084],[3.2766418030000777,6.667808795000067],[3.2799229820000475,6.665223571000038],[3.281355674000017,6.664077622000079],[3.282529861000092,6.663629070000091],[3.285662457000025,6.6632718400000215],[3.2889606680000716,6.66271398800005],[3.290793371000098,6.662377135000067],[3.293675406999994,6.657476062000093],[3.2957093860000652,6.654764158000063],[3.3071913850000945,6.64737698900009],[3.3147568700000773,6.647460885000015],[3.316338059999988,6.645660307000071],[3.322531870000076,6.6296664630000315],[3.3223652230000544,6.628914955000024],[3.3239082330000924,6.627606083999996],[3.3250618190000614,6.62686259000003],[3.326210470000066,6.626436137000006],[3.3274186740000244,6.626264361000004],[3.3281729849999975,6.626720312000071],[3.329440628999989,6.626803525000028],[3.330339510000022,6.626119395000089],[3.331362245,6.625627375000057],[3.332573385000024,6.625265433000042],[3.3334643480000237,6.625089025000012],[3.334676486000041,6.624663509000065],[3.3352504910001057,6.624185445000034],[3.336361888000048,6.624938557000085],[3.337293838000064,6.625395255000036],[3.3375252430001145,6.6278188340000135],[3.3375163249999984,6.628395799000057],[3.3375561750000093,6.628925455000093],[3.337789886000073,6.629362039000068],[3.338218892000042,6.629609169000087],[3.3397995980000905,6.630018510000028],[3.3408010779999975,6.630563045000052],[3.341649427000024,6.631682295000111],[3.3423778359999856,6.63433906300002],[3.3431844840000258,6.635671326000029],[3.3434490440000664,6.636475768000064],[3.343252560000063,6.637242272000069],[3.3435379350000494,6.638693372000052],[3.34377315000006,6.639405236000066],[3.3436325230000596,6.640541989000063],[3.3433167350000437,6.641060502000066],[3.343186034000065,6.641550796000043],[3.343285176000008,6.642106519000016],[3.3432747240000316,6.642783492999985],[3.3432580890000763,6.643860836000041],[3.343212094000001,6.644845029000027],[3.3433872160000133,6.6454635450000445],[3.3436418890000352,6.646263594000072],[3.3422934690000217,6.650308967000033],[3.344230453000061,6.6518587690001],[3.3481175630000726,6.655138552000043],[3.3513233820000243,6.657862356000081],[3.352653629000044,6.658717711000065]]]},"properties":{"FID":9,"Shape_Leng":0.267548977758,"Shape_Area":0.00270297511973,"ADM2_EN":"Ifako-Ijaye","ADM2_PCODE":"NG025010","ADM2_REF":"Ifako-Ijaye","ADM2ALT1EN":" ","ADM2ALT2EN":" ","ADM1_EN":"Lagos","ADM1_PCODE":"NG025","ADM0_EN":"Nigeria","ADM0_PCODE":"NG","date":1480377600000,"validOn":1555459200000,"validTo":null,"SD_EN":"Lagos West","SD_PCODE":"NG02501"}},{"type":"Feature","id":10,"geometry":{"type":"Polygon","coordinates":[[[3.37012914200002,6.641183662000042],[3.369425862000095,6.6429315480000675],[3.365576726000028,6.648941710000059],[3.3598761350000705,6.653189206000047],[3.356962429000041,6.654733741000033],[3.3528617990000376,6.658283432000104],[3.352653629000044,6.658717711000065],[3.3513233820000243,6.657862356000081],[3.3481175630000726,6.655138552000043],[3.344230453000061,6.6518587690001],[3.3422934690000217,6.650308967000033],[3.3436418890000352,6.646263594000072],[3.3433872160000133,6.6454635450000445],[3.343212094000001,6.644845029000027],[3.3432580890000763,6.643860836000041],[3.3432747240000316,6.642783492999985],[3.343285176000008,6.642106519000016],[3.343186034000065,6.641550796000043],[3.3433167350000437,6.641060502000066],[3.3436325230000596,6.640541989000063],[3.34377315000006,6.639405236000066],[3.3435379350000494,6.638693372000052],[3.343252560000063,6.637242272000069],[3.3434490440000664,6.636475768000064],[3.3431844840000258,6.635671326000029],[3.3423778359999856,6.63433906300002],[3.341649427000024,6.631682295000111],[3.3408010779999975,6.630563045000052],[3.3397995980000905,6.630018510000028],[3.338218892000042,6.629609169000087],[3.337789886000073,6.629362039000068],[3.3375561750000093,6.628925455000093],[3.3375163249999984,6.628395799000057],[3.3375252430001145,6.6278188340000135],[3.337293838000064,6.625395255000036],[3.336361888000048,6.624938557000085],[3.3352504910001057,6.624185445000034],[3.3376448390000624,6.617187146999996],[3.3368699180000716,6.613312710000056],[3.3298969599999984,6.61234426600004],[3.331356984000009,6.6054454240000595],[3.328401094000042,6.607066515000074],[3.3274912980000826,6.607777883000047],[3.327014325000053,6.60803077400001],[3.326327718000086,6.608067329000015],[3.3251205690000374,6.608119859000098],[3.3225427880000025,6.60807990399999],[3.3212697240000066,6.60779986900009],[3.319697013999998,6.6070183669999984],[3.318732917999987,6.606648452000034],[3.317467933000038,6.60584797000006],[3.3155398260000224,6.6047370540000685],[3.3162412630000615,6.604403149000063],[3.319921472000007,6.596654797000049],[3.3191466270000225,6.593555804000054],[3.3174035610000407,6.5889072040000976],[3.313536843000029,6.55033163500001],[3.3182749720000215,6.551136036000042],[3.321761575000024,6.554235539000079],[3.3236985360000615,6.55500997900003],[3.322149020000018,6.559077622000057],[3.322149020000018,6.564501228000012],[3.325441827000062,6.564888580000087],[3.3289284900000693,6.565276070999996],[3.334739468000101,6.571280528000049],[3.334933039000041,6.5792221060000635],[3.3340267370000154,6.5843575500000675],[3.3371759840000825,6.586280262000081],[3.3397130450000345,6.587204635000003],[3.3525809980000743,6.554777732000087],[3.355331890000044,6.555920645000061],[3.361227981000101,6.5573434450001],[3.367718297000031,6.557177960999997],[3.3683801180000783,6.5571610070000155],[3.3680657300000894,6.561096067000086],[3.3677361910000903,6.565662245000063],[3.367477403000083,6.567574084000064],[3.369268814000068,6.57133183100003],[3.370694910000025,6.574853623000013],[3.372324436000027,6.577667189000106],[3.375763595000012,6.583669285000052],[3.382953448000001,6.59380669300003],[3.3810057980000563,6.596219410000085],[3.377870841000017,6.600102996000071],[3.3738243430000514,6.605576916000103],[3.3698575760001104,6.610496122000068],[3.365811318000076,6.617477992999991],[3.364779984000008,6.623031544000039],[3.365017880000063,6.625967000000092],[3.365488212000076,6.628319057000013],[3.365548878000033,6.629555576000005],[3.365684059000027,6.630534650000101],[3.366864157000058,6.631980824000031],[3.371541733000103,6.63849344400003],[3.3703488790000824,6.640027206000102],[3.37012914200002,6.641183662000042]]]},"properties":{"FID":10,"Shape_Leng":0.372018270901,"Shape_Area":0.00380860342855,"ADM2_EN":"Ikeja","ADM2_PCODE":"NG025011","ADM2_REF":"Ikeja","ADM2ALT1EN":" ","ADM2ALT2EN":" ","ADM1_EN":"Lagos","ADM1_PCODE":"NG025","ADM0_EN":"Nigeria","ADM0_PCODE":"NG","date":1480377600000,"validOn":1555459200000,"validTo":null,"SD_EN":"Lagos West","SD_PCODE":"NG02501"}},{"type":"Feature","id":11,"geometry":{"type":"Polygon","coordinates":[[[3.6999621210000866,6.68237485500001],[3.5964215010000222,6.68233955000002],[3.586022626999994,6.682468057000083],[3.5854926270001064,6.682901078000029],[3.5330589680000335,6.689738283000061],[3.4591116120000853,6.687321545000028],[3.463662588000047,6.683956086000013],[3.4679663070000677,6.679330922000041],[3.465392810000032,6.673741313000029],[3.4642624620000317,6.671816912000054],[3.4645913330000644,6.668950854000059],[3.4556527910000723,6.668368284000085],[3.453413326000052,6.671054222000098],[3.4510193980000414,6.675666315000054],[3.449935015000025,6.675432281000052],[3.446922397999983,6.673210522000076],[3.4458314270000434,6.6734115860000145],[3.44259470100011,6.671621915000085],[3.4422007000000177,6.670141268000055],[3.4421713040000723,6.66724491600004],[3.444489234000101,6.664900228000018],[3.4494674500000633,6.6578446110000336],[3.4525749660000526,6.652251362000076],[3.454292075000107,6.644476771000022],[3.456408977000023,6.641914750000048],[3.4576635469999983,6.6394334790000045],[3.4482817810000155,6.640582923000075],[3.4346907530000115,6.639135703000058],[3.4349379720000384,6.631966537000004],[3.4353318200000293,6.620542640000075],[3.439960940000062,6.615219032000045],[3.4399609930000663,6.610821629],[3.442275304000062,6.6094326850000975],[3.4429698250000618,6.607349926000076],[3.4464414150000655,6.6073497280000595],[3.4524591130000593,6.601563488000032],[3.453847877000036,6.599711960000047],[3.457551002000101,6.59924885700001],[3.459402812000021,6.596934324000085],[3.460328591000059,6.594157264999993],[3.4655094149999988,6.585466483000072],[3.468316075000053,6.587061833000089],[3.4709310970000606,6.589207068000039],[3.4695529980000783,6.5947791080001075],[3.4746949920000025,6.5955819030000065],[3.4772949060000924,6.597189324000045],[3.481291506000015,6.591194661000003],[3.479808817000083,6.584275763000051],[3.4745373490000153,6.576203773999993],[3.4704191940000717,6.5689559580000925],[3.468771941000024,6.561543059000034],[3.4677834400000362,6.550670514000071],[3.4714076720000575,6.546387742000007],[3.475530169000005,6.543371207000085],[3.4772169650000384,6.540999826000075],[3.4790930600000136,6.540134788000088],[3.484390012000058,6.535755014000081],[3.4869179490000546,6.534412815000049],[3.488792898000024,6.533548839000062],[3.4913210790000404,6.532208038000057],[3.494991052000027,6.531044893000097],[3.497929087000027,6.530926272000052],[3.500866849000004,6.5308059200000415],[3.503722896000059,6.531251806000075],[3.506580114000033,6.531699113000048],[3.5121259760000667,6.529672013000013],[3.5164489860000847,6.528031799000104],[3.5189759490000005,6.526691069000016],[3.522726971000032,6.524961947000033],[3.526316912000058,6.5243659110001],[3.5291741170000313,6.524812190000077],[3.5314600100000737,6.525168793000006],[3.5359499700000496,6.5264502010000705],[3.5381550600000677,6.52737276500002],[3.539707925000033,6.52877278800004],[3.5419130290000522,6.529695902000036],[3.5445279760000536,6.531840875000054],[3.546652098000034,6.5333299460000696],[3.548937072000089,6.533686979000034],[3.552687855000012,6.531958975000055],[3.5563590430000103,6.530796088000027],[3.5587251520000285,6.530587076000053],[3.5632960560000404,6.531301030000062],[3.5669729310000653,6.5341910230000835],[3.57114096200005,6.537734889000028],[3.5731840109999835,6.539791198999993],[3.5761280200000334,6.543722974000058],[3.5781719840000425,6.545777860999994],[3.580214985000061,6.54783299900004],[3.5832400050000635,6.55119983400008],[3.584140978000092,6.553077254000076],[3.5876569730000396,6.557097920000036],[3.590352066000011,6.558677125000049],[3.593941954000033,6.558080146000037],[3.597450985000026,6.558050257000051],[3.600549900000014,6.556797934999995],[3.602915995000031,6.556589209000045],[3.605935081999987,6.5559028730000115],[3.6117289070000202,6.556230079000084],[3.617443108000038,6.557122101000083],[3.619808923000032,6.5569129840001],[3.623970048000067,6.556406059000079],[3.6258459070000226,6.555541954999992],[3.627882961000082,6.553544976000051],[3.629348070000069,6.551459901000015],[3.6324470130000597,6.550208164000008],[3.6353850160000567,6.550087883000092],[3.637831937000011,6.549313206000033],[3.6425264040000327,6.5502147580000205],[3.6458380020000325,6.554615085000041],[3.6473910940000165,6.556014942000047],[3.6482910960000536,6.557890775000001],[3.6503350920000655,6.5599469550000435],[3.6525390220000764,6.560870213000051],[3.65580700000002,6.56253810500003],[3.659074060000065,6.56420625000003],[3.6641350180000343,6.5655760780000385],[3.6683841070000645,6.568553917000045],[3.670346021000035,6.571175975000102],[3.6728809100000737,6.57388605200007],[3.6754150630000515,6.57659723100004],[3.677869102000062,6.5798741360001],[3.6799120669999885,6.581929278000057],[3.6820359700000393,6.583417804000028],[3.6846509150000406,6.585563181000079],[3.687346910999998,6.5871419520000565],[3.6894709950000637,6.588631010000071],[3.6915139870000813,6.5906869370000045],[3.693639035000049,6.592175985000019],[3.6951909100000213,6.5935759110000305],[3.6967439430000892,6.594975827000042],[3.6987879450000127,6.597031153000014],[3.700750103000092,6.599652765000034],[3.702712996000055,6.602274080000029],[3.704659215000059,6.604873677000093],[3.7022156600000278,6.608736055000101],[3.7015512030000286,6.61245686000003],[3.7004881120000865,6.614317429000053],[3.7003550790000928,6.618304213000052],[3.6980960470000523,6.622689801000007],[3.6966340680000576,6.625878779000075],[3.6941092140000498,6.626277414000107],[3.6922488670000453,6.627207658000071],[3.6905209840000763,6.629334099000065],[3.6889264490000384,6.631593317000032],[3.6862685560000363,6.63278948200006],[3.6848068210000617,6.634384206000025],[3.6825475880000047,6.6377062610000905],[3.6822817590000367,6.63996551400006],[3.6828134190000616,6.643819238000063],[3.68480679800006,6.647673247000089],[3.6863532250000253,6.650095869000076],[3.6887933750000412,6.653919331000061],[3.6901223820000473,6.6557797840000745],[3.68985678900001,6.6584378179999995],[3.6902553840000385,6.660430893000061],[3.6907868410000466,6.662557001000028],[3.6907868620000484,6.665480586000076],[3.6917171490000156,6.668005877000031],[3.695969581000056,6.673587343000079],[3.6974828190000286,6.676397464000065],[3.6987605180000527,6.678770058000087],[3.6999621210000866,6.68237485500001]]]},"properties":{"FID":11,"Shape_Leng":0.86934734509,"Shape_Area":0.0326159576394,"ADM2_EN":"Ikorodu","ADM2_PCODE":"NG025012","ADM2_REF":"Ikorodu","ADM2ALT1EN":" ","ADM2ALT2EN":" ","ADM1_EN":"Lagos","ADM1_PCODE":"NG025","ADM0_EN":"Nigeria","ADM0_PCODE":"NG","date":1480377600000,"validOn":1555459200000,"validTo":null,"SD_EN":"Lagos East","SD_PCODE":"NG02503"}},{"type":"Feature","id":12,"geometry":{"type":"Polygon","coordinates":[[[3.4346907530000115,6.639135703000058],[3.3873464150000343,6.638612207999998],[3.3862952570000138,6.638892825000035],[3.3834243370000605,6.63990098100005],[3.3803291970000293,6.640830495000042],[3.37012914200002,6.641183662000042],[3.3703488790000824,6.640027206000102],[3.371541733000103,6.63849344400003],[3.366864157000058,6.631980824000031],[3.365684059000027,6.630534650000101],[3.365548878000033,6.629555576000005],[3.365488212000076,6.628319057000013],[3.365017880000063,6.625967000000092],[3.364779984000008,6.623031544000039],[3.365811318000076,6.617477992999991],[3.3698575760001104,6.610496122000068],[3.3738243430000514,6.605576916000103],[3.377870841000017,6.600102996000071],[3.3810057980000563,6.596219410000085],[3.382953448000001,6.59380669300003],[3.375763595000012,6.583669285000052],[3.372324436000027,6.577667189000106],[3.370694910000025,6.574853623000013],[3.369268814000068,6.57133183100003],[3.367477403000083,6.567574084000064],[3.3677361910000903,6.565662245000063],[3.3680657300000894,6.561096067000086],[3.3683801180000783,6.5571610070000155],[3.368888617000052,6.557147916000087],[3.379525891000088,6.548398052000074],[3.384201993000011,6.546974784000085],[3.390891963000029,6.54854887600003],[3.3938976500000306,6.5498364220000695],[3.3951267640000315,6.549914025000007],[3.3962450240000086,6.549486315000056],[3.397620446000036,6.549210893000094],[3.4016866910000365,6.5359959900000355],[3.4046335590000565,6.5320242770000405],[3.408886174000023,6.526292315000063],[3.412972939000034,6.528646961000021],[3.4155879100000375,6.53079231200007],[3.4164080550000397,6.533234990000029],[3.4166569600000285,6.535587851000017],[3.4166638690000672,6.539640050000099],[3.4159369050000477,6.54473489500003],[3.4150431229999922,6.546909805000038],[3.4121930740000783,6.550516262000009],[3.4108081050000605,6.552034794000065],[3.409573097000016,6.5576291670001154],[3.4114739740000877,6.559661882000082],[3.414820880000078,6.560763712000032],[3.4171869940000965,6.560555035999997],[3.4201250280000073,6.560434775999994],[3.4225093870000256,6.558961401000033],[3.424608981000019,6.557663979000065],[3.4265649390000297,6.556232933000054],[3.4290120560000004,6.555459073000062],[3.4321920680000373,6.553639948000093],[3.438154007000036,6.556887030000084],[3.4390549660000636,6.558763982000041],[3.43987491800005,6.561205747000013],[3.440776111000008,6.563083255000016],[3.4410240510000945,6.565436932000072],[3.4422540580000804,6.569100997000014],[3.44446607600005,6.5740771450000715],[3.4465899750000117,6.575565940000065],[3.448061935000033,6.577531761000003],[3.4501859890000075,6.579021111000042],[3.4510870150000406,6.580897736000061],[3.4542730210000405,6.583131699999981],[3.4571299590000804,6.58357908700005],[3.4599070990000014,6.584591028000023],[3.4655094149999988,6.585466483000072],[3.460328591000059,6.594157264999993],[3.459402812000021,6.596934324000085],[3.457551002000101,6.59924885700001],[3.453847877000036,6.599711960000047],[3.4524591130000593,6.601563488000032],[3.4464414150000655,6.6073497280000595],[3.4429698250000618,6.607349926000076],[3.442275304000062,6.6094326850000975],[3.4399609930000663,6.610821629],[3.439960940000062,6.615219032000045],[3.4353318200000293,6.620542640000075],[3.4349379720000384,6.631966537000004],[3.4346907530000115,6.639135703000058]]]},"properties":{"FID":12,"Shape_Leng":0.402182627648,"Shape_Area":0.00666933376527,"ADM2_EN":"Kosofe","ADM2_PCODE":"NG025013","ADM2_REF":"Kosofe","ADM2ALT1EN":" ","ADM2ALT2EN":" ","ADM1_EN":"Lagos","ADM1_PCODE":"NG025","ADM0_EN":"Nigeria","ADM0_PCODE":"NG","date":1480377600000,"validOn":1555459200000,"validTo":null,"SD_EN":"Lagos East","SD_PCODE":"NG02503"}},{"type":"Feature","id":13,"geometry":{"type":"Polygon","coordinates":[[[3.406318196,6.46449613400009],[3.4028131540000706,6.464624847000081],[3.394038714000067,6.468209752000046],[3.387251623000096,6.466870736000011],[3.3811626580000675,6.463217256000057],[3.3787889140000393,6.461384821000053],[3.376679626000043,6.459754815000011],[3.375053161000028,6.456705018000001],[3.376004485000048,6.454379596000063],[3.3768828040000676,6.452232243000026],[3.3799324090000615,6.4491824780001075],[3.385644207000058,6.446019227000036],[3.393147724000065,6.441863384999994],[3.398840411000079,6.436780423000069],[3.399880366000061,6.434388748000067],[3.4018900659999884,6.436170569000058],[3.4043297580000553,6.438610641000068],[3.4071760010000096,6.4436931190000415],[3.4081926590001066,6.447149187000004],[3.409209221000018,6.451622364000102],[3.4085214490000437,6.453557077000042],[3.407241125000069,6.457157506000048],[3.40631821000009,6.460479367000097],[3.406318196,6.46449613400009]]]},"properties":{"FID":13,"Shape_Leng":0.10410787,"Shape_Area":0.000702816340536,"ADM2_EN":"Lagos Island","ADM2_PCODE":"NG025014","ADM2_REF":"Lagos Island","ADM2ALT1EN":" ","ADM2ALT2EN":" ","ADM1_EN":"Lagos","ADM1_PCODE":"NG025","ADM0_EN":"Nigeria","ADM0_PCODE":"NG","date":1480377600000,"validOn":1555459200000,"validTo":null,"SD_EN":"Lagos Central","SD_PCODE":"NG02502"}},{"type":"Feature","id":14,"geometry":{"type":"Polygon","coordinates":[[[3.405478275000049,6.52325333800006],[3.398840432999992,6.523797614000063],[3.389691363000078,6.523797428000048],[3.38205734100002,6.522843285000061],[3.381318300000067,6.523386138000035],[3.3807554910000404,6.524102127000035],[3.380016629000102,6.525056744000061],[3.3788331300000563,6.525763203000071],[3.3780713790000894,6.525958649000078],[3.3774183690000603,6.525810435000071],[3.3769765170000943,6.52538962500007],[3.376232235000063,6.5244467040000345],[3.3754853119999906,6.523676136000049],[3.3749399650000766,6.523253734000004],[3.3738795590000015,6.522685210000038],[3.3728116650000173,6.52259984500008],[3.371707282000034,6.522651825000029],[3.370392776000073,6.522907731000064],[3.368868751000007,6.5233327870000615],[3.3684118390000384,6.523363913000061],[3.368104079000065,6.522619587000026],[3.3683440470000248,6.51856185900002],[3.3720293260000345,6.509812602000057],[3.3711531470000144,6.507366974000032],[3.3692207080000847,6.504704735000114],[3.368876674000041,6.501408988000005],[3.3705095740000557,6.497880235000068],[3.3713289790000855,6.495918501000023],[3.371094235000025,6.494071986000009],[3.3700643310000755,6.492608321000052],[3.3681096560000823,6.491393821000017],[3.365900127000052,6.489648604000035],[3.364479668000029,6.487915538999992],[3.363990077000021,6.485538850000076],[3.3645585769999853,6.482783648000105],[3.36487625399998,6.479234688000094],[3.365058359000037,6.475946754000098],[3.3637087560000145,6.471515238000073],[3.364403493000032,6.4683193940000585],[3.364993718000018,6.468310124000002],[3.3657652900000867,6.468411291000024],[3.3664833489999912,6.4681247610000305],[3.366639262000013,6.46765123600002],[3.369659200000039,6.467746870000028],[3.3744194359999957,6.468837167000089],[3.3770971330000377,6.468242711000109],[3.379278854000076,6.466556530000037],[3.3811626580000675,6.463217256000057],[3.387251623000096,6.466870736000011],[3.394038714000067,6.468209752000046],[3.3953359200000177,6.472072023000045],[3.394932030000084,6.474902987000068],[3.395180961000075,6.4772558720000575],[3.396410921000057,6.480919837999991],[3.3977219970000894,6.484018677000062],[3.39731790200005,6.486848787000014],[3.3971640900000244,6.49203292800005],[3.399207108000044,6.494089118000005],[3.402313005000077,6.496889252000052],[3.4069709810000104,6.501089127000096],[3.409996037000016,6.504455169000071],[3.4100029540000554,6.508506800000017],[3.409107943999987,6.510681957000045],[3.407238933000065,6.51559771500008],[3.4057740970001005,6.5176839060000304],[3.404309006000026,6.519770070000067],[3.405478275000049,6.52325333800006]]]},"properties":{"FID":14,"Shape_Leng":0.197079004983,"Shape_Area":0.0019214244978,"ADM2_EN":"Lagos Mainland","ADM2_PCODE":"NG025015","ADM2_REF":"Lagos Mainland","ADM2ALT1EN":" ","ADM2ALT2EN":" ","ADM1_EN":"Lagos","ADM1_PCODE":"NG025","ADM0_EN":"Nigeria","ADM0_PCODE":"NG","date":1480377600000,"validOn":1555459200000,"validTo":null,"SD_EN":"Lagos Central","SD_PCODE":"NG02502"}},{"type":"Feature","id":15,"geometry":{"type":"Polygon","coordinates":[[[3.367718297000031,6.557177960999997],[3.361227981000101,6.5573434450001],[3.355331890000044,6.555920645000061],[3.3525809980000743,6.554777732000087],[3.3421168640000642,6.550431274000083],[3.3392703610000884,6.5481947870000425],[3.3380506280000644,6.545348098000051],[3.336424078000042,6.518308303000001],[3.3345942610000767,6.514648409000049],[3.3313412750000415,6.512615260000047],[3.3278851340000726,6.510378829000011],[3.32503865700001,6.507532610000059],[3.3243207980000333,6.504829870999988],[3.3235477060000163,6.501919409000049],[3.323928029000043,6.5011820270000555],[3.3241705400000354,6.500711844000055],[3.3244798160000455,6.500229991000065],[3.3249698790000037,6.499994255000011],[3.325487078999987,6.499624696000076],[3.32620849000008,6.499610724000075],[3.3268382270000485,6.499885301000056],[3.327566179000061,6.500202367],[3.328245290000029,6.499829664000071],[3.3303080719999967,6.502129013000072],[3.3317449510000463,6.503410027000015],[3.3321353130000153,6.503857507000003],[3.333978092000076,6.505299374000021],[3.3344722540000182,6.506168429000073],[3.335106987000045,6.507944869000063],[3.337257824000104,6.510164138000011],[3.3384184590000343,6.510756358999984],[3.3410633760000286,6.510995928000089],[3.3435428900000153,6.511232922000069],[3.3459019810000745,6.511401899000017],[3.3467904250000435,6.5110403220000315],[3.348466248000057,6.511861183000093],[3.3490032900000832,6.512819041000032],[3.349106844000036,6.513262373000032],[3.349556595000034,6.514152465000048],[3.350189378000077,6.5146260030000605],[3.351025537000072,6.514793502000064],[3.351533101000057,6.514801333000001],[3.352483708000018,6.514705481000064],[3.3531942820001026,6.514429602000064],[3.353725911000036,6.514305244000077],[3.354742664000052,6.514210425000048],[3.3554019740000696,6.51439722800005],[3.356195030000051,6.514497910000031],[3.3567039000000554,6.514417297000023],[3.3576389170000587,6.513901813000093],[3.3580843380000536,6.513643582000043],[3.359235566000094,6.513418561999988],[3.360274680000006,6.513302013000025],[3.3608152960000615,6.513286318000059],[3.3618378960000284,6.514445238000025],[3.3625310600000047,6.5164257240000225],[3.3625241810000572,6.517730998000019],[3.362863280000048,6.518641707000054],[3.3634472110000457,6.519423646000092],[3.3655229010000154,6.519367137000035],[3.3665139740000383,6.516477991000084],[3.3683440470000248,6.51856185900002],[3.368104079000065,6.522619587000026],[3.3684118390000384,6.523363913000061],[3.368073791000046,6.527090046000076],[3.3681268680000853,6.531131648999992],[3.3680721740000896,6.535186854000056],[3.3679965600000505,6.539610550000056],[3.3679215770000637,6.5439881930000645],[3.367853207000091,6.547935504000083],[3.3677827260000326,6.552021283000013],[3.367718297000031,6.557177960999997]]]},"properties":{"FID":15,"Shape_Leng":0.182035731393,"Shape_Area":0.00135357651059,"ADM2_EN":"Mushin","ADM2_PCODE":"NG025016","ADM2_REF":"Mushin","ADM2ALT1EN":" ","ADM2ALT2EN":" ","ADM1_EN":"Lagos","ADM1_PCODE":"NG025","ADM0_EN":"Nigeria","ADM0_PCODE":"NG","date":1480377600000,"validOn":1555459200000,"validTo":null,"SD_EN":"Lagos West","SD_PCODE":"NG02501"}},{"type":"Feature","id":16,"geometry":{"type":"Polygon","coordinates":[[[3.2504771020000467,6.478355464000089],[3.2508304230000595,6.481712237000096],[3.240461567000028,6.48699806800002],[3.2195207950000393,6.491877450000064],[3.218097453000044,6.493504028000089],[3.2152511960000885,6.503466722999999],[3.211388378000044,6.512818712000094],[3.2069153670000494,6.5172915430000735],[3.206134081000065,6.520026757000078],[3.204882363000059,6.524407244000056],[3.2039604050000703,6.52947744199999],[3.2000022030000386,6.5277481870000855],[3.1970725200000194,6.52485980500002],[3.1945743700000895,6.523625868000064],[3.191240052000075,6.5229368290000735],[3.189397571000039,6.521421323000002],[3.1865716150000756,6.5190968840000565],[3.1848077860000634,6.51678507100009],[3.182457693000038,6.513895604000023],[3.179516071000008,6.509849000000049],[3.1770744400000472,6.508471149000087],[3.174613267000068,6.507490034000089],[3.1710610600000555,6.508788914],[3.168775107000008,6.508430907000044],[3.1665699440000727,6.507507804000049],[3.163223051999995,6.5064059630000095],[3.15987490800008,6.505304904000035],[3.1570179740000404,6.504858016000096],[3.155649450000051,6.501806247000012],[3.1475145590000286,6.502919235999997],[3.1436340630000315,6.504502853000108],[3.14077711900008,6.504056968000075],[3.1362059070000425,6.503343087000072],[3.133430000000046,6.502329814000078],[3.130162941000001,6.500661745000084],[3.1237161110000278,6.500812960000072],[3.121659275000108,6.500112408000106],[3.118412007000102,6.501140965000033],[3.1143319890000276,6.501081898000031],[3.1113939250001144,6.501201958000017],[3.1091089070000555,6.500844998000058],[3.1039462040001053,6.49945931100007],[3.1066835060000164,6.494114479000061],[3.1119694740000403,6.491674365000048],[3.1119694640000395,6.487811557000004],[3.111766359000021,6.485575060000052],[3.113189481000087,6.483948607000038],[3.1154258470000284,6.482322219000029],[3.116645816000072,6.480288903000012],[3.1162390540000784,6.4760194000000695],[3.115832571000019,6.4737830250000385],[3.115222431000073,6.471750242000066],[3.1133928240000364,6.470326971000077],[3.1107497420000163,6.468903589000078],[3.1068868600000554,6.468700402000053],[3.102210738000042,6.465447376000014],[3.097127906000039,6.46605728600003],[3.0936715640000534,6.467073786000114],[3.0935976400000653,6.464630214000081],[3.0934684280000324,6.460364878000039],[3.0944847970001055,6.458128539000011],[3.0957047820000616,6.4556886130001025],[3.097534683000034,6.4540619820000735],[3.0993642730000692,6.450605965000026],[3.1007874090000476,6.44796270700008],[3.1028206590000584,6.444099888000036],[3.104650519000116,6.440643850000075],[3.1066834930000153,6.438000778000056],[3.1070902150000057,6.434747626000007],[3.1060736210000917,6.431697948000007],[3.106886857000055,6.428648596000034],[3.109123254999999,6.425191744000095],[3.108513350000073,6.420109245000031],[3.1074967520000696,6.416042697000005],[3.106683500000016,6.4123835790000285],[3.106886890000058,6.409130540999989],[3.102617265000016,6.408520830000079],[3.097737794000053,6.407707094000074],[3.0942816819999974,6.408113996000079],[3.0912318160000707,6.409130524000076],[3.088792078,6.410147267000092],[3.0863525650000367,6.409740467000095],[3.085125577000034,6.40926843600003],[3.0771623240000023,6.41030348500005],[3.0696495860000317,6.409312509000035],[3.056099875000071,6.405615122],[3.049516881000023,6.400871530000089],[3.047050777999991,6.395563156999987],[3.06245899100007,6.396123476000074],[3.068990925000068,6.396607520000067],[3.072730771000063,6.399371629000065],[3.076902608000096,6.396850660000023],[3.0951804920000248,6.39721439700001],[3.1137225470000507,6.398668408000056],[3.129356165000039,6.3983048070000805],[3.150806924000036,6.398668319000048],[3.164986132000034,6.399759432000089],[3.1806197050000184,6.400122517000021],[3.200511208000054,6.400716898999995],[3.2021459010000397,6.400765412000013],[3.2021100810000958,6.403030282000003],[3.202035869999995,6.407722508000106],[3.2030508180000394,6.41116331900005],[3.202442674000081,6.414416191000075],[3.2006127680000196,6.416449458000088],[3.1991896600000436,6.419702414000032],[3.2010195300000133,6.425801713000027],[3.200206275000048,6.428648599000034],[3.200612776000109,6.431697970000098],[3.204272486000046,6.4337311200001],[3.2073221370000438,6.433731071000096],[3.2128114930000207,6.433731145000014],[3.2207405430000646,6.4363742250000335],[3.217894342000025,6.440033512000113],[3.2167552020000967,6.441719417000073],[3.2194306400000405,6.44126709800004],[3.2263836550000624,6.441087138000071],[3.2283965850000795,6.441988204000019],[3.229803126000017,6.444618364000036],[3.229178475000025,6.447506438000076],[3.228041963000048,6.451364019000042],[3.228873020000065,6.452028834999982],[3.2309973910000656,6.456277799000091],[3.230549165000105,6.4566293660000476],[3.2295488650000292,6.4571717610000725],[3.229050637000017,6.457319061000003],[3.227313524000084,6.4574157470000095],[3.2270519200000214,6.458280091000027],[3.227193695000028,6.459119718000043],[3.2274667110000577,6.459495953000086],[3.228424306000064,6.459697285000047],[3.231922604000057,6.4591445130000515],[3.23863195800008,6.457111907000094],[3.238835117000103,6.471953503000098],[3.2424948110000384,6.476629281000083],[3.2504771020000467,6.478355464000089]]]},"properties":{"FID":16,"Shape_Leng":0.668769004842,"Shape_Area":0.0132160235317,"ADM2_EN":"Ojo","ADM2_PCODE":"NG025017","ADM2_REF":"Ojo","ADM2ALT1EN":" ","ADM2ALT2EN":" ","ADM1_EN":"Lagos","ADM1_PCODE":"NG025","ADM0_EN":"Nigeria","ADM0_PCODE":"NG","date":1480377600000,"validOn":1555459200000,"validTo":null,"SD_EN":"Lagos West","SD_PCODE":"NG02501"}},{"type":"Feature","id":17,"geometry":{"type":"Polygon","coordinates":[[[3.3525809980000743,6.554777732000087],[3.3397130450000345,6.587204635000003],[3.3371759840000825,6.586280262000081],[3.3340267370000154,6.5843575500000675],[3.334933039000041,6.5792221060000635],[3.334739468000101,6.571280528000049],[3.3289284900000693,6.565276070999996],[3.325441827000062,6.564888580000087],[3.322149020000018,6.564501228000012],[3.322149020000018,6.559077622000057],[3.3236985360000615,6.55500997900003],[3.321761575000024,6.554235539000079],[3.3182749720000215,6.551136036000042],[3.313536843000029,6.55033163500001],[3.311398719000045,6.550167589000026],[3.3113987240000453,6.553847752000056],[3.3073311000000194,6.5577216280000385],[3.3048131550000504,6.562370733000037],[3.301907788000089,6.562370744000038],[3.300909392000082,6.562183940000036],[3.3003090610000596,6.5616879490000315],[3.29970446800004,6.560607988000115],[3.298033723000091,6.5592712230000885],[3.2959030100000986,6.557915691000019],[3.2929976040000453,6.557915648000105],[3.287574073000008,6.556172421000021],[3.286993057000074,6.554041499000011],[3.285830777000096,6.546874948999996],[3.2885425170000238,6.534671920000083],[3.288155114000033,6.531185219000072],[3.2877679290000605,6.526149229000037],[3.2862181530000845,6.524018726000062],[3.283893807000058,6.518788858000061],[3.285830718000091,6.511428482999996],[3.28796149,6.506585524000034],[3.2897048430000053,6.505229878000044],[3.291254313000045,6.502905238000082],[3.2910607090000132,6.500387538000044],[3.2909128690000378,6.4956571010000665],[3.2911875660001177,6.48150867600004],[3.299033406000027,6.483725946000089],[3.3003801260000776,6.486529249000043],[3.3039820120000263,6.486946492000104],[3.3068420210000538,6.485727397000044],[3.3151781320000273,6.487811493999999],[3.3178212630000514,6.4910644240000295],[3.3192443480000255,6.495334191000083],[3.3204643580000726,6.497773710000047],[3.3233106440000304,6.501026636000077],[3.3235477060000163,6.501919409000049],[3.3243207980000333,6.504829870999988],[3.32503865700001,6.507532610000059],[3.3278851340000726,6.510378829000011],[3.3313412750000415,6.512615260000047],[3.3345942610000767,6.514648409000049],[3.336424078000042,6.518308303000001],[3.3380506280000644,6.545348098000051],[3.3392703610000884,6.5481947870000425],[3.3421168640000642,6.550431274000083],[3.3525809980000743,6.554777732000087]]]},"properties":{"FID":17,"Shape_Leng":0.315352323012,"Shape_Area":0.00360760299827,"ADM2_EN":"Oshodi-Isolo","ADM2_PCODE":"NG025018","ADM2_REF":"Oshodi-Isolo","ADM2ALT1EN":" ","ADM2ALT2EN":" ","ADM1_EN":"Lagos","ADM1_PCODE":"NG025","ADM0_EN":"Nigeria","ADM0_PCODE":"NG","date":1480377600000,"validOn":1555459200000,"validTo":null,"SD_EN":"Lagos West","SD_PCODE":"NG02501"}},{"type":"Feature","id":18,"geometry":{"type":"Polygon","coordinates":[[[3.3683801180000783,6.5571610070000155],[3.367718297000031,6.557177960999997],[3.3677827260000326,6.552021283000013],[3.367853207000091,6.547935504000083],[3.3679215770000637,6.5439881930000645],[3.3679965600000505,6.539610550000056],[3.3680721740000896,6.535186854000056],[3.3681268680000853,6.531131648999992],[3.368073791000046,6.527090046000076],[3.3684118390000384,6.523363913000061],[3.368868751000007,6.5233327870000615],[3.370392776000073,6.522907731000064],[3.371707282000034,6.522651825000029],[3.3728116650000173,6.52259984500008],[3.3738795590000015,6.522685210000038],[3.3749399650000766,6.523253734000004],[3.3754853119999906,6.523676136000049],[3.376232235000063,6.5244467040000345],[3.3769765170000943,6.52538962500007],[3.3774183690000603,6.525810435000071],[3.3780713790000894,6.525958649000078],[3.3788331300000563,6.525763203000071],[3.380016629000102,6.525056744000061],[3.3807554910000404,6.524102127000035],[3.381318300000067,6.523386138000035],[3.38205734100002,6.522843285000061],[3.389691363000078,6.523797428000048],[3.398840432999992,6.523797614000063],[3.405478275000049,6.52325333800006],[3.408886174000023,6.526292315000063],[3.4046335590000565,6.5320242770000405],[3.4016866910000365,6.5359959900000355],[3.397620446000036,6.549210893000094],[3.3962450240000086,6.549486315000056],[3.3951267640000315,6.549914025000007],[3.3938976500000306,6.5498364220000695],[3.390891963000029,6.54854887600003],[3.384201993000011,6.546974784000085],[3.379525891000088,6.548398052000074],[3.368888617000052,6.557147916000087],[3.3683801180000783,6.5571610070000155]]]},"properties":{"FID":18,"Shape_Leng":0.137820126772,"Shape_Area":0.000914285754572,"ADM2_EN":"Shomolu","ADM2_PCODE":"NG025019","ADM2_REF":"Shomolu","ADM2ALT1EN":" ","ADM2ALT2EN":" ","ADM1_EN":"Lagos","ADM1_PCODE":"NG025","ADM0_EN":"Nigeria","ADM0_PCODE":"NG","date":1480377600000,"validOn":1555459200000,"validTo":null,"SD_EN":"Lagos East","SD_PCODE":"NG02503"}},{"type":"Feature","id":19,"geometry":{"type":"Polygon","coordinates":[[[3.3683440470000248,6.51856185900002],[3.3665139740000383,6.516477991000084],[3.3655229010000154,6.519367137000035],[3.3634472110000457,6.519423646000092],[3.362863280000048,6.518641707000054],[3.3625241810000572,6.517730998000019],[3.3625310600000047,6.5164257240000225],[3.3618378960000284,6.514445238000025],[3.3608152960000615,6.513286318000059],[3.360274680000006,6.513302013000025],[3.359235566000094,6.513418561999988],[3.3580843380000536,6.513643582000043],[3.3576389170000587,6.513901813000093],[3.3567039000000554,6.514417297000023],[3.356195030000051,6.514497910000031],[3.3554019740000696,6.51439722800005],[3.354742664000052,6.514210425000048],[3.353725911000036,6.514305244000077],[3.3531942820001026,6.514429602000064],[3.352483708000018,6.514705481000064],[3.351533101000057,6.514801333000001],[3.351025537000072,6.514793502000064],[3.350189378000077,6.5146260030000605],[3.349556595000034,6.514152465000048],[3.349106844000036,6.513262373000032],[3.3490032900000832,6.512819041000032],[3.348466248000057,6.511861183000093],[3.3467904250000435,6.5110403220000315],[3.3459019810000745,6.511401899000017],[3.3435428900000153,6.511232922000069],[3.3410633760000286,6.510995928000089],[3.3384184590000343,6.510756358999984],[3.337257824000104,6.510164138000011],[3.335106987000045,6.507944869000063],[3.3344722540000182,6.506168429000073],[3.333978092000076,6.505299374000021],[3.3321353130000153,6.503857507000003],[3.3317449510000463,6.503410027000015],[3.3303080719999967,6.502129013000072],[3.328245290000029,6.499829664000071],[3.327566179000061,6.500202367],[3.3268382270000485,6.499885301000056],[3.32620849000008,6.499610724000075],[3.325487078999987,6.499624696000076],[3.3249698790000037,6.499994255000011],[3.3244798160000455,6.500229991000065],[3.3241705400000354,6.500711844000055],[3.323928029000043,6.5011820270000555],[3.3235477060000163,6.501919409000049],[3.3233106440000304,6.501026636000077],[3.322395838000012,6.49513042900001],[3.3244287650000848,6.489641092000035],[3.3268685370000695,6.484761734000081],[3.3284949990000845,6.481305702000032],[3.328291665000047,6.477849581000065],[3.3268685250000685,6.47195341200009],[3.3189394530000227,6.463617712000062],[3.3164589200000405,6.459038160000045],[3.3210644800000777,6.460388184000102],[3.3240773810000546,6.462502228000048],[3.324661560999984,6.464512184000085],[3.3252007160000074,6.465292937000115],[3.32607907300003,6.465526975000028],[3.3279477080000985,6.465886873000052],[3.3288209430000526,6.46645207800001],[3.3291413620000077,6.467118921000029],[3.330336821000066,6.4682407540000355],[3.3311049120000247,6.468473090000074],[3.331762892000021,6.468703996999995],[3.3318645640000843,6.469257230000029],[3.3330667700000793,6.469937721000022],[3.3338383660000614,6.469949664000033],[3.334560869000067,6.469857701000063],[3.3354246640000396,6.470463695000021],[3.3398005749999937,6.473393408000042],[3.341692472000033,6.474906935000039],[3.343770374000008,6.475975684000005],[3.3448792830000995,6.4767900670000635],[3.3452367170000086,6.477307388000057],[3.3453741180000085,6.477870224000085],[3.34564823000004,6.47826446200002],[3.34616002300002,6.478063223000067],[3.3468123430000807,6.477807090000013],[3.351133592000042,6.478635706000006],[3.3577981319999983,6.478556767000047],[3.3602576070000145,6.477286727000035],[3.3630344740000906,6.476493813000065],[3.365058359000037,6.475946754000098],[3.36487625399998,6.479234688000094],[3.3645585769999853,6.482783648000105],[3.363990077000021,6.485538850000076],[3.364479668000029,6.487915538999992],[3.365900127000052,6.489648604000035],[3.3681096560000823,6.491393821000017],[3.3700643310000755,6.492608321000052],[3.371094235000025,6.494071986000009],[3.3713289790000855,6.495918501000023],[3.3705095740000557,6.497880235000068],[3.368876674000041,6.501408988000005],[3.3692207080000847,6.504704735000114],[3.3711531470000144,6.507366974000032],[3.3720293260000345,6.509812602000057],[3.3683440470000248,6.51856185900002]]]},"properties":{"FID":19,"Shape_Leng":0.213764850071,"Shape_Area":0.00159777245557,"ADM2_EN":"Surulere","ADM2_PCODE":"NG025020","ADM2_REF":"Surulere","ADM2ALT1EN":" ","ADM2ALT2EN":" ","ADM1_EN":"Lagos","ADM1_PCODE":"NG025","ADM0_EN":"Nigeria","ADM0_PCODE":"NG","date":1480377600000,"validOn":1555459200000,"validTo":null,"SD_EN":"Lagos Central","SD_PCODE":"NG02502"}}]}