{"type":"FeatureCollection","features":[{"type":"Feature","id":0,"geometry":{"type":"Polygon","coordinates":[[[3.3238654310000584,6.673875677000069],[3.3146647870000265,6.675467070000025],[3.311308329000042,6.6775825870000745],[3.3024418050000577,6.680912986000067],[3.2983719110000607,6.682439352000074],[3.29604682300004,6.683270205000042],[3.2905163430000357,6.685785200000055],[3.2884802600000285,6.686620510000068],[3.2878645440000582,6.687031433000072],[3.28234700400003,6.690715383000054],[3.2741728660000717,6.695934704000024],[3.2718499740000198,6.696620752000058],[3.267937722000056,6.69728219600006],[3.2645989670000404,6.69824139900004],[3.2624295040000675,6.698352113000055],[3.2620028610000418,6.697911903000033],[3.2624962000000437,6.69640229700002],[3.2625359730000696,6.695919368000034],[3.2611343710000256,6.6931162270000755],[3.2598617250000643,6.690934322000032],[3.259441050000021,6.690226274000054],[3.2543575650000207,6.681670770000039],[3.2519843400000354,6.676463996000052],[3.2495136510000293,6.672148177000054],[3.2483026770000265,6.670033019000073],[3.246590126000058,6.6675776330000645],[3.244319439000037,6.664321889000064],[3.241841081000075,6.659866261000047],[3.2413773630000264,6.654182996000031],[3.240473275000056,6.64819914900005],[3.2400112000000263,6.645865998000033],[3.2392933450000214,6.642240946000072],[3.2388513000000216,6.640009252000027],[3.2393701080000596,6.633987325000021],[3.2393371850000676,6.6307319480000615],[3.241477246000045,6.628627356000038],[3.2414391280000245,6.62532668800003],[3.241116767000051,6.623126012000057],[3.240591056000028,6.618102212000053],[3.2400076230000536,6.616025448000073],[3.2374811290000594,6.61411621700006],[3.2353110510000533,6.609843721000061],[3.2332827880000536,6.605851246000043],[3.2297241760000475,6.601042213000028],[3.2160725740000657,6.595005580000077],[3.207470873000034,6.5883751660000485],[3.1994068650000713,6.580310895000025],[3.196898010000041,6.576189628000066],[3.196181066000065,6.573322177000023],[3.1963772880000647,6.570620963000067],[3.19743561100006,6.566333236000048],[3.200840473000028,6.559164986000042],[3.2015571850000697,6.555401734000043],[3.201736432000075,6.552176555000074],[3.203928961000031,6.5471926200000325],[3.2039249140000265,6.544594765000056],[3.204818967000051,6.542418947000044],[3.2052219060000198,6.539588995000031],[3.2051351090000253,6.536102710000023],[3.20496702600002,6.533184042000073],[3.203960405000032,6.529477442000029],[3.2000022030000537,6.527748187000043],[3.197072520000063,6.524859805000062],[3.194574370000055,6.523625868000067],[3.1912400520000688,6.522936829000059],[3.189397571000029,6.521421323000027],[3.186571615000048,6.519096884000021],[3.1848077860000217,6.516785071000072],[3.1824576930000603,6.513895604000027],[3.179516071000023,6.509849000000031],[3.1770744400000694,6.508471149000059],[3.1746132670000407,6.507490034000057],[3.1710610600000564,6.508788914000036],[3.1687751070000445,6.508430907000047],[3.1665699440000594,6.507507804000056],[3.163223052000035,6.50640596300002],[3.159874908000063,6.50530490400007],[3.1570179740000412,6.504858016000071],[3.1556494500000554,6.501806247000047],[3.147514559000058,6.502919236000025],[3.143634063000036,6.504502853000076],[3.140777119000063,6.504056968000043],[3.1362059070000328,6.503343087000076],[3.1334300000000326,6.502329814000063],[3.1301629410000373,6.500661745000059],[3.1237161110000216,6.500812960000076],[3.12165927500007,6.500112408000064],[3.1184120070000745,6.501140965000047],[3.11433198900005,6.501081898000052],[3.1113939250000726,6.501201958000024],[3.1091089070000635,6.500844998000048],[3.103946204000067,6.4994593110000665],[3.1015408390000516,6.499492355000029],[3.100608909000073,6.5006945730000325],[3.095901619000074,6.501701958000069],[3.094720844000051,6.501485364000075],[3.0916519720000224,6.502498208000077],[3.0819999690000373,6.503586091000045],[3.0736058270000512,6.503761193000059],[3.064279599000031,6.50392099000004],[3.0462736870000526,6.502695987000038],[3.030138255000054,6.503189509000038],[3.024404101000073,6.504091071000062],[3.0235515760000453,6.504813368000043],[3.0098347300000228,6.507387659000074],[2.9921038970000495,6.508340927000063],[2.9855381590000434,6.510720724000066],[2.969992340000033,6.511086765000073],[2.9556841750000444,6.51178376200005],[2.9485480610000536,6.511043833000031],[2.940448968000055,6.512153678000061],[2.9345454360000645,6.512055923000048],[2.9271140870000636,6.510378045000039],[2.923375232000069,6.510938058000022],[2.9214851960000487,6.512461372000075],[2.9121328250000715,6.514171536000049],[2.9056388350000475,6.512197940000021],[2.9019309850000354,6.5108923970000205],[2.898197266000068,6.511141057000032],[2.886929308000049,6.510953090000044],[2.888858791000075,6.50834366600003],[2.889995567000028,6.506023981000055],[2.8922748560000286,6.501963203000059],[2.8944890510000505,6.499014275000036],[2.89630698600007,6.495014715000025],[2.8966705860000275,6.491742699000042],[2.8966705820000698,6.487743368000054],[2.895266543000048,6.48485080100005],[2.8930346960000293,6.480108271000063],[2.8893990570000483,6.47610902100007],[2.8853998220000676,6.473564244000045],[2.8799462360000234,6.4699282250000465],[2.8737654680000446,6.470655467000029],[2.868675471000074,6.471746511000049],[2.866494178000039,6.47138269200002],[2.8595862500000635,6.467747147000068],[2.857807631000071,6.4600399580000385],[2.8558959940000364,6.45780910700006],[2.854747054000029,6.453577940000059],[2.8538460830000645,6.451702045000047],[2.852550747000066,6.449971292000043],[2.8421854990000384,6.443988688000047],[2.8330013700000336,6.443141082000068],[2.831588512000053,6.444836745000032],[2.8284800060000634,6.446814409000069],[2.823676100000057,6.451477146000059],[2.8183069330000308,6.4545855030000325],[2.8130791270000373,6.45599844700007],[2.806297070000028,6.458824703000062],[2.7992324830000257,6.460095886000033],[2.79414605900007,6.4593896200000245],[2.789907216000074,6.457411175000061],[2.786374806000026,6.455009447000066],[2.784114127000066,6.452748821000057],[2.7791690790000416,6.4520424850000495],[2.7759192000000326,6.4524665670000445],[2.7737998950000247,6.452466422000043],[2.768713243000036,6.451335868000058],[2.7636268060000475,6.451759949000063],[2.758681534000061,6.452042509000023],[2.75260591600005,6.451194716000032],[2.7479434100000617,6.44935805700004],[2.744410998000035,6.449075298000025],[2.73960708900006,6.454444354000032],[2.735445981000055,6.457930508000061],[2.732699870000033,6.457930419000036],[2.7228834580000694,6.458657864000031],[2.719611412000063,6.4593848840000305],[2.7137942370000587,6.459021061000044],[2.7101583540000433,6.456112888000064],[2.7026109660000657,6.452376882000067],[2.7025420630000667,6.447737318000065],[2.702536111000029,6.443684981000047],[2.7028579720000607,6.44142021600004],[2.7026910860000726,6.438499853000053],[2.7024419310000667,6.43614726900006],[2.7022740840000665,6.433227146000036],[2.702677017000042,6.430397137000057],[2.702508936000072,6.427476732000059],[2.7028319850000457,6.425211987000068],[2.702905891000057,6.420594101000063],[2.70265697800005,6.418240946000026],[2.7024090270000443,6.41588695400003],[2.7021598930000437,6.4135340900000415],[2.702805994000073,6.4090051730000255],[2.7032089300000735,6.406174290000024],[2.7030410760000336,6.4032550360000755],[2.70279193500005,6.400900745000058],[2.7031960460000732,6.398069881000026],[2.7029469010000753,6.395717015000059],[2.703351023000039,6.392886151000027],[2.703835007000066,6.389490020000039],[2.703747028000066,6.386004051000043],[2.7035789540000223,6.383083938000027],[2.7034919180000543,6.379598281000028],[2.7040569810000648,6.375636031000056],[2.7039804410000556,6.372600470000066],[2.7137942360000693,6.373582003000024],[2.7352447520000283,6.37612712400005],[2.755241386000023,6.3801265770000555],[2.771601919000034,6.382307972000035],[2.7894170310000277,6.383398656000054],[2.8123219110000264,6.387397673000066],[2.835954187000027,6.388852027000041],[2.8504970100000264,6.391760934000047],[2.8781282980000356,6.392488125000057],[2.90103339500007,6.39357848700007],[2.923211097000035,6.393578558000058],[2.9512062080000305,6.395396326000025],[2.970111839000026,6.396123448000026],[2.994107480000025,6.395760008000025],[3.005378255000039,6.39539622500007],[3.0231933710000476,6.394669018000059],[3.04246259100006,6.395396079000022],[3.0470507780000275,6.395563157000026],[3.062458991000028,6.396123476000071],[3.068990925000037,6.396607520000032],[3.0727307710000673,6.399371629000029],[3.0769026080000685,6.396850660000041],[3.095180492000054,6.3972143970000275],[3.113722547000066,6.398668408000049],[3.129356165000047,6.398304807000045],[3.150806924000051,6.3986683190000235],[3.164986132000024,6.399759432000053],[3.1806197050000264,6.400122517000057],[3.200511208000023,6.400716899000031],[3.2021459010000513,6.400765412000055],[3.20497897000007,6.400849841000024],[3.235518941000066,6.4008496750000745],[3.2664224870000567,6.400849842000071],[3.312959711000076,6.400122682000074],[3.338409694000063,6.398304931000041],[3.37004020400002,6.394668945000035],[3.3827073810000456,6.392435072000069],[3.395853725000052,6.391397060000031],[3.399489668000058,6.390306448000047],[3.406374478000032,6.390175753000051],[3.405407890000049,6.393206128000031],[3.4050039980000406,6.396037109000076],[3.4023463590000347,6.4006872800000565],[3.4037940550000485,6.4045280910000315],[3.4046950420000712,6.406404852000037],[3.4048631150000688,6.409325124000077],[3.405291082000076,6.412123311000073],[3.412941698000054,6.417210497000042],[3.4191225030000396,6.418664994000039],[3.44675374600007,6.419392162000065],[3.467477301000031,6.420119155000066],[3.4878373120000674,6.42011941100003],[3.508924499000045,6.419392113000072],[3.5398280800000634,6.421573533000071],[3.5747308640000597,6.421209926000074],[3.6179959790000566,6.422300808000045],[3.6308031010000263,6.422573109000041],[3.6419916060000332,6.4226641570000425],[3.661624436000068,6.42339131600005],[3.6790759940000726,6.423027905000026],[3.699799538000036,6.425936208000053],[3.725612872000056,6.4273906270000225],[3.734702369000047,6.427754352000022],[3.748518021000052,6.429935315000023],[3.7605158920000576,6.431389736000028],[3.7659695350000675,6.433571211000071],[3.7841479910000544,6.435388992000071],[3.7990543570000455,6.4375705760000415],[3.8103251570000225,6.437934308000024],[3.8212323350000474,6.43793448200006],[3.8354115510000497,6.437934430000041],[3.855044367000062,6.4375705180000296],[3.871768704000033,6.43684348000005],[3.8903108100000736,6.437207345000047],[3.90667154800002,6.436843298000042],[3.917578696000021,6.434661965000032],[3.9444828470000743,6.432844038000042],[3.959666470000059,6.4313840800000435],[3.963388701000042,6.431026373000066],[3.98629352100005,6.427027112000076],[3.9971034130000476,6.425187169000026],[4.003381199000046,6.424118473000021],[4.022650673000044,6.42048273000006],[4.035739482000054,6.4179378540000585],[4.039031083000054,6.41793782700006],[4.0514097570000445,6.416218151000066],[4.076207177000072,6.411755031000041],[4.106707542000038,6.405307770000036],[4.150846923000074,6.3971242660000485],[4.197714353000038,6.388197508000076],[4.241102759000057,6.382299927000076],[4.248796488000039,6.38125420800003],[4.277065705000041,6.378278580000028],[4.301863198000035,6.3760466720000295],[4.329606604000048,6.372818903000052],[4.346622405000062,6.370839257000057],[4.350837715000068,6.371037511000054],[4.3508376950000525,6.377373772000055],[4.350837698000021,6.389730584000063],[4.350837702000035,6.415349109000033],[4.350837707000039,6.421683377000022],[4.35083774900005,6.427625099000068],[4.350093832000027,6.429857240000047],[4.34761424200002,6.431345019000048],[4.344638305000046,6.433824603000062],[4.3433986180000375,6.435808250000036],[4.337199247000058,6.439528069000062],[4.332735513000046,6.43952798600003],[4.324056663000022,6.437792262000073],[4.316617421000046,6.438040255000033],[4.3092264620000265,6.439470816000039],[4.3039383620000535,6.439470836000055],[4.301939901000026,6.438798896000037],[4.29872178200003,6.43518292300007],[4.295577053000045,6.434611238000059],[4.291146817000026,6.436612182000033],[4.287573395000038,6.436040265000031],[4.284000380000066,6.436755303000041],[4.281284852000056,6.438755897000021],[4.278997934000074,6.437898665000034],[4.276282372000026,6.439613246000022],[4.275138789000039,6.441900275000023],[4.2724232180000286,6.442757967000034],[4.268421627000066,6.442471979000061],[4.265706062000049,6.442900627000029],[4.263808781000023,6.443560554000044],[4.259145677000049,6.442461051000066],[4.254343550000044,6.441328609000038],[4.253342638000049,6.439041530000054],[4.253963956000064,6.436204899000074],[4.253271547000054,6.434325089000026],[4.249984272000063,6.433753403000026],[4.2452673160000245,6.434468201000072],[4.243409575000044,6.4361834940000335],[4.236883159000058,6.438172931000054],[4.237406736000025,6.441900222000072],[4.235691493000047,6.444758762000049],[4.233404685000039,6.445473654000068],[4.230688985000029,6.44547361900004],[4.227973429000031,6.444758834000027],[4.22582961400002,6.445616283000049],[4.223792609000043,6.448614995000071],[4.221828004000031,6.450475729000061],[4.219969701000025,6.455478139000036],[4.21875471200002,6.459766041000023],[4.217325681000034,6.463053265000042],[4.215181864000044,6.463339233000056],[4.213389431000053,6.464474753000047],[4.207791753000038,6.464179123000065],[4.205748566000068,6.463053314000035],[4.203461599000036,6.461909892000051],[4.200460493000037,6.463196252000046],[4.193742806000046,6.463196295000046],[4.192170607000037,6.465483111000026],[4.189598101000058,6.46648364400005],[4.186025192000045,6.4670553070000665],[4.182880323000063,6.4684843190000265],[4.177449655000032,6.470056441000054],[4.174734128000068,6.47205795800005],[4.172018566000077,6.473629885000037],[4.168302066000024,6.474201743000037],[4.1648721620000515,6.474630386000058],[4.161073195000029,6.474720079000065],[4.160954526000069,6.476819114000023],[4.160012800000061,6.4817768160000355],[4.159441002000051,6.487207961000024],[4.158382893000066,6.489767925000024],[4.157010980000052,6.492209851000041],[4.1550102690000585,6.496640615000047],[4.156153691000043,6.49878459100006],[4.160584477000043,6.50064280600003],[4.165502056000037,6.502708900000073],[4.167706033000059,6.5036329910000745],[4.1739979150000295,6.508666917000028],[4.174899126000071,6.510542849000046],[4.176371138000036,6.512509937000061],[4.17833427000005,6.5151309520000495],[4.181109885000069,6.516143886000066],[4.185030038000036,6.517334076000054],[4.191804906000073,6.518972048000023],[4.194009760000029,6.519895155000029],[4.198338942000021,6.522307730000023],[4.201116097000067,6.523320253000065],[4.203321027000072,6.524242731000072],[4.206097071000045,6.525256054000067],[4.211143909000043,6.528088491000062],[4.214440333000027,6.531934308000075],[4.222256721000065,6.537740708000058],[4.224712860000068,6.5431003780000765],[4.227616367000053,6.551586627000063],[4.226499601000057,6.553596635000076],[4.228733101000046,6.557616090000067],[4.225383271000055,6.561189173000059],[4.223108233000062,6.561960685000031],[4.221983437000063,6.565439835000063],[4.220036558000061,6.56751670400007],[4.218013327000051,6.5696753710000735],[4.217413405000059,6.572402830000044],[4.215333421000025,6.577714878000052],[4.2126536670000405,6.5786084790000245],[4.211760601000037,6.581735105000064],[4.207517196000026,6.583968116000051],[4.204390985000032,6.5855312440000375],[4.2014874670000495,6.586871162000023],[4.199585025000033,6.588473749000059],[4.198807673000033,6.585754805000022],[4.194118048000064,6.585531365000065],[4.186748515000033,6.58486117800004],[4.179602185000022,6.586424926000063],[4.178262167000071,6.5886579320000465],[4.174912405000043,6.589774741000042],[4.171562692000066,6.591560728000047],[4.169150354000067,6.592352989000062],[4.166342255000075,6.593373705000033],[4.162237171000072,6.592182036000054],[4.159720937000031,6.590592774000072],[4.155615744000045,6.5867524620000495],[4.150955124000063,6.581296173000055],[4.144799029000069,6.578747467000028],[4.141882782000039,6.577807297000049],[4.139138439000021,6.576644137000073],[4.133595717000048,6.5741480530000445],[4.131805721000035,6.573222749000024],[4.130525459000069,6.57207898300004],[4.128857337000056,6.570985747000066],[4.124665239000024,6.568559199000049],[4.122209023000039,6.566325564000067],[4.11997556700004,6.564985652000075],[4.116402626000024,6.563422710000054],[4.110596169000075,6.558286054000064],[4.11059619100007,6.555606404000059],[4.109479391000036,6.552256484000054],[4.109479467000028,6.548430308000036],[4.1016802180000695,6.547468365000043],[4.0944212890000244,6.546886518000065],[4.093583171000034,6.549289300000055],[4.095366999000021,6.550732997000068],[4.0919719170000235,6.555282646000023],[4.089619192000043,6.555962133000037],[4.091167493000057,6.558509378000053],[4.090641964000042,6.561825173000045],[4.088607769000021,6.56263864400006],[4.087188729000047,6.5609107010000685],[4.086427775000061,6.5594182400000705],[4.08293294300006,6.559184806000076],[4.080267867000032,6.560401511000066],[4.076335390000054,6.561621789000071],[4.074369379000075,6.562299600000074],[4.071724860000074,6.562435557000072],[4.068231056000059,6.563551991000054],[4.064938036000058,6.562396160000048],[4.06544064600007,6.566706134000071],[4.067058558000042,6.569550010000057],[4.066284135000046,6.571547484000064],[4.066097661000072,6.575692745000026],[4.06488654900005,6.580557285000054],[4.063204774000042,6.582680706000076],[4.062079381000046,6.586159078000037],[4.061119977000033,6.588450784000031],[4.059261802000037,6.594275896000056],[4.057499415000052,6.596439745000055],[4.057574356000032,6.599493453000036],[4.055875357000048,6.603553282000064],[4.055933435000043,6.605656074000024],[4.056022636000023,6.608876141000053],[4.056531843000073,6.611081664000039],[4.053805902000022,6.614354157000037],[4.051404970000021,6.616016498000022],[4.050481298000022,6.619155888000023],[4.053805861000058,6.621002682000039],[4.056575741000074,6.624696121000056],[4.05768396600007,6.627466735000041],[4.05860761200006,6.629867478000051],[4.05786889500007,6.633930118000023],[4.058792162000032,6.635962053000071],[4.061562482000056,6.636700554000072],[4.064332561000072,6.636146418000067],[4.0666932710000765,6.634893777000059],[4.068395594000037,6.633191704000069],[4.070426931000043,6.633191641000053],[4.074559236000027,6.635638607000033],[4.076706399000045,6.637070047000066],[4.078922810000051,6.637439243000074],[4.0815081880000434,6.637624303000052],[4.084463184000072,6.639840023000033],[4.085386228000061,6.642795159000059],[4.087972182000044,6.644827005000025],[4.089633982000066,6.648335469000074],[4.09055760800004,6.650736403000053],[4.091480764000039,6.6525831540000695],[4.095231067000043,6.6515193770000565],[4.092588920000026,6.656461745000058],[4.093327558000055,6.6586776350000605],[4.091850295000029,6.660339906000047],[4.0914807250000536,6.662371669000038],[4.09037253200006,6.666065132000028],[4.091850294000039,6.6679119610000726],[4.094251211000028,6.670681975000036],[4.0927733950000516,6.672528763000059],[4.092404302000034,6.675114726000061],[4.091296251000074,6.676961370000072],[4.091480698000055,6.67899264700003],[4.078527024000039,6.679176339000037],[4.0731620550000684,6.6792525690000275],[4.0501803920000725,6.680025123000064],[4.019699532000061,6.679941469000028],[3.979125550000049,6.682415390000074],[3.9472328300000754,6.680181193000067],[3.919335189000037,6.68066120900005],[3.916836717000024,6.680703983000058],[3.8153736530000515,6.682108532000029],[3.7078650250000464,6.68303398300003],[3.6999621210000555,6.682374855000035],[3.5964215010000657,6.6823395500000515],[3.586022627000034,6.682468057000051],[3.5854926270000647,6.682901078000043],[3.5330589680000344,6.689738283000054],[3.459111612000072,6.687321545000032],[3.463662588000034,6.683956086000023],[3.46796630700004,6.6793309220000765],[3.4653928100000257,6.6737413130000505],[3.464262462000022,6.671816912000054],[3.464591333000044,6.668950854000059],[3.455652791000034,6.668368284000053],[3.4534133260000317,6.671054222000066],[3.451019398000028,6.675666315000058],[3.449935015000051,6.675432281000042],[3.4469223980000265,6.6732105220000335],[3.44583142700003,6.673411586000043],[3.4425947010000755,6.67162191500006],[3.4422007000000576,6.670141268000066],[3.4421713040000554,6.667244916000072],[3.4444892340000592,6.664900228000022],[3.449467450000043,6.65784461100003],[3.452574966000043,6.652251362000072],[3.454292075000069,6.644476771000029],[3.4564089770000237,6.641914750000069],[3.4576635470000383,6.639433479000047],[3.4482817810000483,6.640582923000068],[3.434690753000041,6.639135703000022],[3.3873464150000245,6.6386122080000405],[3.386295257000029,6.638892825000028],[3.383424337000065,6.639900981000039],[3.3803291970000373,6.640830495000046],[3.370129142000053,6.64118366200006],[3.369425862000071,6.6429315480000355],[3.365576726000029,6.648941710000031],[3.359876135000036,6.653189206000036],[3.3569624290000206,6.65473374100003],[3.3528617990000384,6.658283432000076],[3.352653629000031,6.658717711000065],[3.347636259000069,6.669185373000062],[3.3448355860000447,6.6727550340000334],[3.3427974700000505,6.673735040000054],[3.3349962100000425,6.673614469000029],[3.328786269000034,6.6733739460000265],[3.3238654310000584,6.673875677000069]]]},"properties":{"FID":0,"Shape_Leng":4.28776988005,"Shape_Area":0.300165674819,"ADM1_EN":"Lagos","ADM1_PCODE":"NG025","ADM1_REF":"Lagos","ADM1ALT1EN":" ","ADM1ALT2EN":" ","ADM0_EN":"Nigeria","ADM0_PCODE":"NG","date":1480377600000,"validOn":1555459200000,"validTo":null}}]}